{"type": "FeatureCollection", "_comment": "Home areas for the flasher's location step -- which settings a node subscribes to, NOT the mesh region tree pushed to the device. The two are different things and are not required to line up. 'id' is an internal handle with no meaning; the settings file is named by the 'settings' property and is never derived from the id. Zone geometry from https://regions.caboosey.net/regions/, simplified to ~220 m; 'counties' is their provenance. 'kind' drives rendering: states are always drawn, zones only under the pointer.", "features": [{"type": "Feature", "properties": {"id": "us-ms", "kind": "state", "name": "Mississippi", "settings": "gc-default-settings.json"}, "geometry": {"type": "Polygon", "coordinates": [[[-88.4711, 34.9957], [-88.2027, 34.9957], [-88.0987, 34.8916], [-88.2411, 33.7963], [-88.4711, 31.8958], [-88.3944, 30.3677], [-88.504, 30.3239], [-88.745, 30.3458], [-88.8435, 30.4115], [-89.0845, 30.3677], [-89.4186, 30.2527], [-89.5227, 30.1815], [-89.6432, 30.2855], [-89.6815, 30.4498], [-89.8458, 30.6689], [-89.7472, 30.9975], [-91.6368, 30.9975], [-91.5656, 31.0687], [-91.6368, 31.2659], [-91.5163, 31.2769], [-91.4999, 31.6438], [-91.4013, 31.6219], [-91.341, 31.8465], [-91.1055, 31.9889], [-90.985, 32.2189], [-91.0069, 32.5146], [-91.1548, 32.6406], [-91.1439, 32.8433], [-91.0727, 32.8871], [-91.1658, 33.0021], [-91.0891, 33.139], [-91.1439, 33.3471], [-91.0562, 33.4293], [-91.2315, 33.5607], [-91.0727, 33.8675], [-90.8919, 34.0263], [-90.9522, 34.1358], [-90.744, 34.3001], [-90.7495, 34.3659], [-90.5688, 34.4206], [-90.5852, 34.6178], [-90.4812, 34.6616], [-90.41, 34.8314], [-90.2511, 34.9081], [-90.3114, 34.9957], [-88.4711, 34.9957]]]}}, {"type": "Feature", "properties": {"id": "us-la", "kind": "state", "name": "Louisiana", "settings": "gc-default-settings.json"}, "geometry": {"type": "Polygon", "coordinates": [[[-93.6085, 33.0185], [-91.1658, 33.0021], [-91.0727, 32.8871], [-91.1439, 32.8433], [-91.1548, 32.6406], [-91.0069, 32.5146], [-90.985, 32.2189], [-91.1055, 31.9889], [-91.341, 31.8465], [-91.4013, 31.6219], [-91.4999, 31.6438], [-91.5163, 31.2769], [-91.6368, 31.2659], [-91.5656, 31.0687], [-91.6368, 30.9975], [-89.7472, 30.9975], [-89.8458, 30.6689], [-89.6815, 30.4498], [-89.6432, 30.2855], [-89.5227, 30.1815], [-89.8184, 30.0445], [-89.8404, 29.946], [-89.5994, 29.8802], [-89.4953, 30.0391], [-89.2872, 29.8802], [-89.3036, 29.7543], [-89.4241, 29.6995], [-89.6487, 29.7488], [-89.6213, 29.6557], [-89.698, 29.5133], [-89.5063, 29.3873], [-89.1995, 29.349], [-89.09, 29.2011], [-89.0024, 29.1792], [-89.1612, 29.0094], [-89.3365, 29.0423], [-89.4843, 29.2175], [-89.8513, 29.3106], [-89.8513, 29.4804], [-90.032, 29.4257], [-90.0211, 29.2833], [-90.1032, 29.1518], [-90.2347, 29.1299], [-90.3333, 29.2778], [-90.5633, 29.2833], [-90.6455, 29.1299], [-90.7988, 29.0861], [-90.9631, 29.1792], [-91.0946, 29.1901], [-91.2205, 29.4366], [-91.4451, 29.5461], [-91.5327, 29.5297], [-91.6204, 29.7378], [-91.8832, 29.7105], [-91.8887, 29.8364], [-92.1461, 29.7159], [-92.1133, 29.6228], [-92.3105, 29.5352], [-92.6172, 29.579], [-92.9732, 29.7159], [-93.2251, 29.7762], [-93.7673, 29.7269], [-93.8385, 29.6885], [-93.9261, 29.7871], [-93.6906, 30.1431], [-93.7673, 30.3348], [-93.6961, 30.4389], [-93.729, 30.5758], [-93.6304, 30.6799], [-93.5263, 30.9373], [-93.5428, 31.1509], [-93.8166, 31.5562], [-93.8221, 31.7753], [-94.0412, 31.9943], [-94.0412, 33.0185], [-93.6085, 33.0185]]]}}, {"type": "Feature", "properties": {"id": "us-fl", "kind": "state", "name": "Florida", "settings": "gc-default-settings.json"}, "geometry": {"type": "Polygon", "coordinates": [[[-85.4971, 30.9975], [-85.0042, 31.003], [-84.8673, 30.7127], [-83.4981, 30.647], [-82.2164, 30.5703], [-82.1672, 30.3567], [-82.0467, 30.3622], [-82.0028, 30.5649], [-82.0412, 30.7511], [-81.9481, 30.8278], [-81.718, 30.7456], [-81.4442, 30.7073], [-81.384, 30.2746], [-81.258, 29.7871], [-80.9677, 29.1463], [-80.5241, 28.4617], [-80.5898, 28.4124], [-80.5679, 28.0948], [-80.3817, 27.7388], [-80.0914, 27.0213], [-80.0311, 26.7967], [-80.0366, 26.5667], [-80.1462, 25.7397], [-80.2393, 25.7232], [-80.3379, 25.4658], [-80.305, 25.3837], [-80.4967, 25.1975], [-80.5734, 25.2413], [-80.7596, 25.1646], [-81.0772, 25.1208], [-81.1704, 25.2248], [-81.1265, 25.3782], [-81.3511, 25.8218], [-81.5264, 25.904], [-81.6797, 25.8437], [-81.8002, 26.0902], [-81.8331, 26.2928], [-82.0412, 26.5174], [-82.0905, 26.6653], [-82.0576, 26.8789], [-82.1726, 26.9172], [-82.1452, 26.7912], [-82.2493, 26.7584], [-82.567, 27.3006], [-82.6929, 27.4375], [-82.3917, 27.8373], [-82.5889, 27.8154], [-82.7203, 27.6895], [-82.8518, 27.8866], [-82.6765, 28.4343], [-82.6437, 28.8889], [-82.7641, 28.9985], [-82.8025, 29.1463], [-82.9942, 29.1792], [-83.2187, 29.4202], [-83.3995, 29.5188], [-83.4104, 29.6666], [-83.5364, 29.7214], [-83.6405, 29.8857], [-84.0238, 30.1048], [-84.3579, 30.0555], [-84.3415, 29.9021], [-84.451, 29.9295], [-84.8673, 29.7433], [-85.3109, 29.6995], [-85.3, 29.809], [-85.404, 29.9405], [-85.9243, 30.2362], [-86.2968, 30.3622], [-86.6309, 30.3951], [-86.9102, 30.3732], [-87.5181, 30.2801], [-87.3702, 30.4279], [-87.4469, 30.5101], [-87.4086, 30.6744], [-87.6331, 30.8661], [-87.6003, 30.9975], [-85.4971, 30.9975]]]}}, {"type": "Feature", "properties": {"id": "us-al", "kind": "state", "name": "Alabama", "settings": "gc-default-settings.json"}, "geometry": {"type": "Polygon", "coordinates": [[[-87.3593, 35.0012], [-85.6067, 34.9847], [-85.4314, 34.1249], [-85.185, 32.8597], [-85.0699, 32.5804], [-84.9604, 32.4215], [-85.0042, 32.323], [-84.8892, 32.2627], [-85.059, 32.1367], [-85.0535, 32.0108], [-85.1411, 31.841], [-85.0426, 31.5398], [-85.1138, 31.2769], [-85.0042, 31.003], [-85.4971, 30.9975], [-87.6003, 30.9975], [-87.6331, 30.8661], [-87.4086, 30.6744], [-87.4469, 30.5101], [-87.3702, 30.4279], [-87.5181, 30.2801], [-87.6551, 30.2472], [-87.907, 30.4115], [-87.9344, 30.658], [-88.0111, 30.6854], [-88.1042, 30.4991], [-88.137, 30.3184], [-88.3944, 30.3677], [-88.4711, 31.8958], [-88.2411, 33.7963], [-88.0987, 34.8916], [-88.2027, 34.9957], [-87.3593, 35.0012]]]}}, {"type": "Feature", "properties": {"id": "panama-city", "kind": "zone", "name": "Panama City", "counties": "Bay (Florida), Calhoun (Florida), Franklin (Florida), Gulf (Florida), Jackson (Florida), Liberty (Florida), Washington (Florida)", "settings": "gc-default-settings.json"}, "geometry": {"type": "Polygon", "coordinates": [[[-86.00077, 30.1036], [-85.8935, 30.04529], [-85.87286, 30.03079], [-85.8502, 30.0092], [-85.80356, 29.97816], [-85.76834, 29.9596], [-85.70979, 29.93584], [-85.64457, 29.87486], [-85.58962, 29.83756], [-85.58648, 29.79091], [-85.57667, 29.74405], [-85.56475, 29.70404], [-85.54459, 29.6535], [-85.5262, 29.61869], [-85.50455, 29.58781], [-85.48473, 29.56456], [-85.45875, 29.54177], [-85.41445, 29.51783], [-85.36567, 29.50616], [-85.31366, 29.50793], [-85.25967, 29.52481], [-85.22185, 29.50191], [-85.17712, 29.48516], [-85.13212, 29.45449], [-85.10414, 29.44367], [-85.07043, 29.43698], [-85.03631, 29.4365], [-85.00078, 29.44168], [-84.88212, 29.47665], [-84.79732, 29.52205], [-84.73819, 29.54068], [-84.68935, 29.56264], [-84.65277, 29.5855], [-84.58868, 29.64074], [-84.54847, 29.65324], [-84.49826, 29.67445], [-84.47452, 29.68773], [-84.44008, 29.71814], [-84.41995, 29.74696], [-84.411551, 29.745639], [-84.29688, 29.972559], [-84.348838, 29.969081], [-84.385437, 29.977395], [-84.39882, 29.983409], [-84.426856, 29.985914], [-84.438881, 29.977442], [-84.444191, 29.981799], [-84.449482, 29.973344], [-84.454551, 29.971333], [-84.458403, 29.975198], [-84.459675, 29.993376], [-84.467713, 30.001853], [-84.472119, 30.002399], [-84.487087, 29.988457], [-84.51413, 29.989076], [-84.511955, 29.98338], [-84.514093, 29.980477], [-84.523992, 29.981728], [-84.524692, 29.986653], [-84.51896, 29.995129], [-84.525007, 30.005221], [-84.531218, 30.007366], [-84.542419, 30.002445], [-84.548411, 30.008983], [-84.543021, 30.012835], [-84.55569, 30.014778], [-84.558376, 30.02212], [-84.561795, 30.022772], [-84.565137, 30.017417], [-84.568329, 30.020398], [-84.570368, 30.016884], [-84.591048, 30.029637], [-84.598808, 30.03787], [-84.599323, 30.040131], [-84.594048, 30.040033], [-84.600144, 30.044061], [-84.596468, 30.046362], [-84.603916, 30.046335], [-84.609777, 30.059719], [-84.616036, 30.065361], [-84.619956, 30.066919], [-84.626084, 30.062392], [-84.625798, 30.065296], [-84.630162, 30.064953], [-84.628169, 30.068307], [-84.635082, 30.071639], [-84.638245, 30.083815], [-84.642414, 30.083294], [-84.644768, 30.09128], [-84.654549, 30.09992], [-84.648447, 30.104713], [-84.651924, 30.106815], [-84.648293, 30.109287], [-84.652869, 30.117992], [-84.659623, 30.115079], [-84.670364, 30.128208], [-84.667043, 30.133819], [-84.672157, 30.140898], [-84.66854, 30.143604], [-84.671937, 30.149768], [-84.668404, 30.159533], [-84.669492, 30.165691], [-84.664944, 30.169774], [-84.668686, 30.173066], [-84.669895, 30.184435], [-84.678255, 30.18809], [-84.675964, 30.200735], [-84.681442, 30.202188], [-84.681871, 30.21771], [-84.687645, 30.222263], [-84.692716, 30.222143], [-84.701027, 30.231972], [-84.70118, 30.235432], [-84.699486, 30.233784], [-84.697357, 30.236536], [-84.701294, 30.24828], [-84.726608, 30.25672], [-84.737823, 30.266178], [-84.73217, 30.267942], [-84.730942, 30.275158], [-84.727661, 30.275846], [-84.730841, 30.28044], [-84.729898, 30.2862], [-84.711068, 30.301871], [-84.708449, 30.310152], [-84.701113, 30.317671], [-84.709496, 30.323488], [-84.715161, 30.333029], [-84.704347, 30.335888], [-84.696399, 30.347145], [-84.694598, 30.3452], [-84.690914, 30.349622], [-84.68489, 30.350114], [-84.681393, 30.367063], [-84.670479, 30.364144], [-84.663507, 30.370475], [-84.663577, 30.378402], [-84.646408, 30.388281], [-84.680632, 30.387973], [-84.680525, 30.417269], [-84.714124, 30.417199], [-84.714097, 30.460401], [-84.781111, 30.459794], [-84.781813, 30.518693], [-84.815618, 30.518491], [-84.815816, 30.533093], [-84.882616, 30.533094], [-84.883316, 30.605589], [-84.932519, 30.606393], [-84.927519, 30.612493], [-84.905619, 30.621993], [-84.903419, 30.638492], [-84.893519, 30.645892], [-84.88752, 30.663792], [-84.87492, 30.671992], [-84.857921, 30.698409], [-84.871318, 30.723783], [-84.884221, 30.733091], [-84.888822, 30.743391], [-84.897622, 30.751391], [-84.911122, 30.751191], [-84.914422, 30.753891], [-84.915022, 30.761191], [-84.920023, 30.76579], [-84.918023, 30.77809], [-84.928323, 30.79309], [-84.927923, 30.80369], [-84.937424, 30.820889], [-84.934815, 30.835851], [-84.925796, 30.841522], [-84.936124, 30.856988], [-84.93283, 30.865498], [-84.939824, 30.872588], [-84.934124, 30.882488], [-84.942525, 30.888488], [-84.966726, 30.917287], [-84.971426, 30.928587], [-84.983527, 30.935486], [-84.980427, 30.962086], [-84.984127, 30.967086], [-84.999928, 30.971186], [-85.005734, 30.975908], [-85.0019, 31.000681], [-85.243632, 31.000884], [-85.497992, 30.996931], [-85.518874, 30.9778], [-85.52921, 30.974439], [-85.532457, 30.958557], [-85.530294, 30.939315], [-85.536784, 30.934499], [-85.547745, 30.932185], [-85.55912, 30.913929], [-85.575574, 30.898601], [-85.582753, 30.885111], [-85.584105, 30.87446], [-85.592193, 30.864543], [-85.599429, 30.844628], [-85.598662, 30.818858], [-85.603221, 30.796528], [-85.619936, 30.771741], [-85.619011, 30.743868], [-85.736051, 30.74637], [-85.735115, 30.775292], [-85.751979, 30.775706], [-85.751927, 30.789837], [-85.821616, 30.790775], [-85.816839, 30.78183], [-85.82769, 30.774889], [-85.83052, 30.765715], [-85.828094, 30.761941], [-85.832537, 30.758504], [-85.827737, 30.752245], [-85.832534, 30.748683], [-85.824303, 30.743999], [-85.82998, 30.740576], [-85.822585, 30.738787], [-85.828521, 30.729859], [-85.825251, 30.725778], [-85.832096, 30.723111], [-85.83506, 30.725685], [-85.833567, 30.7213], [-85.839774, 30.717283], [-85.834978, 30.710604], [-85.84051, 30.711508], [-85.84515, 30.707752], [-85.844421, 30.70313], [-85.857988, 30.698574], [-85.860482, 30.692806], [-85.865821, 30.691146], [-85.863555, 30.686913], [-85.867344, 30.680492], [-85.874343, 30.681703], [-85.870886, 30.668567], [-85.87539, 30.667835], [-85.867929, 30.662579], [-85.888942, 30.656851], [-85.890282, 30.651485], [-85.905846, 30.644896], [-85.914593, 30.635188], [-85.91104, 30.630867], [-85.912352, 30.62112], [-85.910304, 30.620829], [-85.913663, 30.617615], [-85.908276, 30.612476], [-85.915921, 30.596788], [-85.908812, 30.596756], [-85.909037, 30.586733], [-85.89535, 30.58635], [-85.893485, 30.580814], [-85.889548, 30.581778], [-85.890553, 30.563845], [-85.879827, 30.556205], [-85.877278, 30.53195], [-85.881655, 30.533873], [-85.887063, 30.527957], [-85.882365, 30.520951], [-85.887563, 30.518546], [-85.879126, 30.512158], [-85.883821, 30.507842], [-85.878047, 30.504366], [-85.874934, 30.507467], [-85.873678, 30.504864], [-85.867935, 30.506613], [-85.865745, 30.498277], [-85.858001, 30.496905], [-85.859769, 30.490134], [-85.871479, 30.482134], [-85.879172, 30.46643], [-85.886454, 30.465917], [-85.885732, 30.471509], [-85.889359, 30.47114], [-85.893057, 30.456316], [-85.897674, 30.455908], [-85.90272, 30.442441], [-85.916153, 30.438502], [-85.932434, 30.441644], [-85.935938, 30.445245], [-85.962415, 30.440585], [-85.969113, 30.431105], [-85.968872, 30.435754], [-85.97151, 30.435865], [-85.974196, 30.431579], [-85.981883, 30.429522], [-85.98659, 30.423515], [-85.983727, 30.418482], [-85.993596, 30.405082], [-86.00077, 30.1036]]]}}, {"type": "Feature", "properties": {"id": "fort-pierce", "kind": "zone", "name": "Fort Pierce", "counties": "Indian River (Florida), Martin (Florida), Okeechobee (Florida), St. Lucie (Florida)", "settings": "gc-default-settings.json"}, "geometry": {"type": "Polygon", "coordinates": [[[-81.213518, 27.528155], [-81.210853, 27.528291], [-81.212073, 27.52457], [-81.206384, 27.519657], [-81.207719, 27.51789], [-81.19943, 27.514887], [-81.198459, 27.510376], [-81.201505, 27.509263], [-81.205388, 27.490254], [-81.188792, 27.48231], [-81.182505, 27.483673], [-81.168838, 27.459521], [-81.154557, 27.454118], [-81.150046, 27.445759], [-81.144872, 27.445007], [-81.139058, 27.434044], [-81.143745, 27.415815], [-81.138284, 27.408459], [-81.125073, 27.403634], [-81.125235, 27.393602], [-81.121296, 27.389808], [-81.117181, 27.390175], [-81.113694, 27.384868], [-81.101919, 27.383331], [-81.09845, 27.379108], [-81.080591, 27.385216], [-81.068402, 27.382346], [-81.05876, 27.373025], [-81.049823, 27.369352], [-81.05256, 27.365726], [-81.049422, 27.362618], [-81.040521, 27.362547], [-81.033524, 27.357013], [-81.035158, 27.355098], [-81.030733, 27.35152], [-81.032748, 27.347614], [-81.034436, 27.350315], [-81.042067, 27.347631], [-81.041837, 27.343627], [-81.045274, 27.341358], [-81.044109, 27.329673], [-81.037736, 27.329841], [-81.03024, 27.32388], [-81.032962, 27.319698], [-81.026985, 27.313275], [-81.02879, 27.305794], [-81.024673, 27.301807], [-81.020702, 27.30072], [-81.019974, 27.302997], [-81.013306, 27.297313], [-81.012293, 27.300939], [-81.006716, 27.302789], [-80.999867, 27.296037], [-80.994402, 27.296415], [-80.998491, 27.291196], [-80.996809, 27.28187], [-81.000634, 27.267602], [-80.99262, 27.250311], [-80.980612, 27.246411], [-80.984126, 27.230883], [-80.981778, 27.231552], [-80.971144, 27.217787], [-80.964714, 27.215866], [-80.957457, 27.21906], [-80.955613, 27.223346], [-80.948255, 27.222338], [-80.949392, 27.219866], [-80.942477, 27.206994], [-80.937395, 27.203536], [-80.937445, 27.199128], [-80.933455, 27.196672], [-80.930787, 27.200228], [-80.917465, 27.189957], [-80.910929, 27.191395], [-80.908943, 27.187957], [-80.906285, 27.188855], [-80.908375, 27.174298], [-80.897651, 27.170544], [-80.897023, 27.165894], [-80.890522, 27.164233], [-80.878867, 27.169316], [-80.880353, 27.164856], [-80.870236, 27.152273], [-80.873311, 27.150054], [-80.871164, 27.147064], [-80.885639, 26.958919], [-80.142007, 26.95664], [-80.141879, 26.970879], [-80.022754, 26.970392], [-80.039102, 27.029853], [-80.063385, 27.091603], [-80.080955, 27.125329], [-80.094089, 27.163736], [-80.095411, 27.18064], [-80.127097, 27.239374], [-80.213346, 27.424719], [-80.227962, 27.463004], [-80.229299, 27.485629], [-80.24977, 27.518985], [-80.268546, 27.572903], [-80.281354, 27.621171], [-80.294927, 27.639278], [-80.298868, 27.662094], [-80.328113, 27.750306], [-80.385069, 27.861362], [-80.447088, 27.860755], [-80.4549, 27.854641], [-80.491079, 27.854601], [-80.494421, 27.851911], [-80.496821, 27.838523], [-80.507333, 27.827989], [-80.509075, 27.822058], [-80.881566, 27.822511], [-80.880073, 27.733699], [-80.873795, 27.733854], [-80.87315, 27.642288], [-81.142164, 27.643238], [-81.144239, 27.639134], [-81.141332, 27.625929], [-81.144732, 27.616986], [-81.140472, 27.601302], [-81.155356, 27.591431], [-81.157262, 27.574021], [-81.165939, 27.574971], [-81.176771, 27.558183], [-81.185094, 27.558937], [-81.200148, 27.546141], [-81.205979, 27.547344], [-81.202487, 27.539407], [-81.209535, 27.53488], [-81.208039, 27.530524], [-81.213518, 27.528155]]]}}, {"type": "Feature", "properties": {"id": "gulfport", "kind": "zone", "name": "Gulfport", "counties": "George (Mississippi), Hancock (Mississippi), Harrison (Mississippi), Jackson (Mississippi), Pearl River (Mississippi), Stone (Mississippi)", "settings": "gc-default-settings.json"}, "geometry": {"type": "Polygon", "coordinates": [[[-89.85231, 30.662408], [-89.840843, 30.660816], [-89.841072, 30.652431], [-89.833702, 30.657695], [-89.830314, 30.650766], [-89.825416, 30.649782], [-89.824668, 30.64492], [-89.821144, 30.646509], [-89.822952, 30.639078], [-89.813713, 30.637479], [-89.820068, 30.632808], [-89.823669, 30.62222], [-89.830299, 30.621854], [-89.830825, 30.617649], [-89.820846, 30.619079], [-89.823257, 30.607711], [-89.813919, 30.607717], [-89.822502, 30.604913], [-89.813955, 30.598299], [-89.81929, 30.597103], [-89.818771, 30.59288], [-89.812782, 30.592288], [-89.811431, 30.586641], [-89.807022, 30.587099], [-89.815696, 30.58554], [-89.809242, 30.579776], [-89.808311, 30.568351], [-89.794639, 30.569873], [-89.795474, 30.565067], [-89.79277, 30.564174], [-89.79123, 30.569947], [-89.786865, 30.569053], [-89.792198, 30.562435], [-89.803413, 30.56208], [-89.80326, 30.558002], [-89.794774, 30.556845], [-89.791961, 30.548793], [-89.803919, 30.549349], [-89.779159, 30.544029], [-89.774681, 30.538608], [-89.777351, 30.533384], [-89.769058, 30.528209], [-89.772903, 30.520439], [-89.768798, 30.518373], [-89.767486, 30.513036], [-89.757459, 30.518599], [-89.760513, 30.511722], [-89.754725, 30.509833], [-89.758361, 30.505451], [-89.754241, 30.506219], [-89.752807, 30.502962], [-89.757017, 30.499185], [-89.749565, 30.502377], [-89.742987, 30.498875], [-89.742946, 30.495143], [-89.747483, 30.492843], [-89.737996, 30.495881], [-89.729309, 30.490006], [-89.72451, 30.491824], [-89.720832, 30.487016], [-89.723731, 30.482486], [-89.7192, 30.483068], [-89.71585, 30.477855], [-89.709602, 30.477973], [-89.705426, 30.472121], [-89.705667, 30.464855], [-89.695643, 30.463072], [-89.690035, 30.459333], [-89.689514, 30.453018], [-89.685836, 30.454319], [-89.683631, 30.451787], [-89.682655, 30.442445], [-89.685005, 30.440078], [-89.683837, 30.433858], [-89.680313, 30.433374], [-89.681045, 30.423391], [-89.677749, 30.418462], [-89.68048, 30.411334], [-89.68441, 30.411912], [-89.683708, 30.405586], [-89.679145, 30.402364], [-89.670318, 30.382659], [-89.660949, 30.373889], [-89.662513, 30.371768], [-89.658493, 30.367347], [-89.661117, 30.364435], [-89.657287, 30.357183], [-89.65142, 30.356012], [-89.641883, 30.346477], [-89.636512, 30.34727], [-89.629646, 30.338518], [-89.632698, 30.32796], [-89.628913, 30.325321], [-89.63005, 30.320699], [-89.63327, 30.320531], [-89.626502, 30.313903], [-89.641105, 30.305786], [-89.640434, 30.295503], [-89.647178, 30.289367], [-89.638809, 30.2882], [-89.631294, 30.279769], [-89.632316, 30.268604], [-89.625305, 30.263532], [-89.630485, 30.262182], [-89.631614, 30.257013], [-89.614044, 30.244773], [-89.615737, 30.223371], [-89.596572, 30.211965], [-89.585693, 30.192241], [-89.571907, 30.180721], [-89.554626, 30.185911], [-89.544837, 30.194299], [-89.534835, 30.195383], [-89.527634, 30.188169], [-89.51477, 30.161762], [-89.494973, 30.16075], [-89.456818, 30.165733], [-89.416711, 30.177639], [-89.306135, 30.177941], [-89.260977, 30.181998], [-89.183669, 30.212155], [-89.096476, 30.165829], [-88.88903, 30.139845], [-88.90033, 30.16998], [-88.875027, 30.178997], [-88.85039, 30.192282], [-88.821387, 30.21737], [-88.800636, 30.202385], [-88.765287, 30.189941], [-88.740104, 30.188077], [-88.717386, 30.190875], [-88.67743, 30.179712], [-88.58663, 30.169109], [-88.567875, 30.170453], [-88.545855, 30.176653], [-88.509786, 30.157943], [-88.461283, 30.146686], [-88.419384, 30.149234], [-88.384431, 30.158543], [-88.425432, 30.998323], [-88.834339, 30.997983], [-88.834475, 30.910323], [-89.340806, 30.909912], [-89.340701, 31.001033], [-89.348966, 31.001043], [-89.34895, 31.01037], [-89.424808, 31.010114], [-89.425337, 30.982452], [-89.476022, 30.982901], [-89.47594, 31.001363], [-89.501396, 31.001461], [-89.50134, 31.016026], [-89.552026, 31.015959], [-89.551851, 31.001917], [-89.728119, 31.0023], [-89.73554, 30.999715], [-89.734227, 30.995602], [-89.72778, 30.993898], [-89.730964, 30.9789], [-89.737149, 30.976081], [-89.727072, 30.967395], [-89.735686, 30.966573], [-89.756554, 30.941949], [-89.749333, 30.934957], [-89.752321, 30.92454], [-89.745161, 30.922416], [-89.744789, 30.918933], [-89.750073, 30.91293], [-89.759403, 30.915134], [-89.764202, 30.911906], [-89.756671, 30.901069], [-89.758719, 30.897319], [-89.770269, 30.89939], [-89.773553, 30.896862], [-89.773555, 30.886369], [-89.769782, 30.880624], [-89.77711, 30.881088], [-89.779216, 30.87658], [-89.767789, 30.865577], [-89.772582, 30.85964], [-89.771722, 30.854677], [-89.783384, 30.856022], [-89.7806, 30.845508], [-89.789509, 30.851382], [-89.79247, 30.850386], [-89.787471, 30.842781], [-89.790432, 30.830985], [-89.78235, 30.832552], [-89.787454, 30.822587], [-89.781502, 30.818945], [-89.785894, 30.815962], [-89.791745, 30.820387], [-89.795327, 30.817227], [-89.795497, 30.820754], [-89.798654, 30.820855], [-89.797425, 30.811454], [-89.803734, 30.807807], [-89.804632, 30.802511], [-89.809544, 30.800197], [-89.81544, 30.802837], [-89.808489, 30.796897], [-89.808065, 30.791636], [-89.802976, 30.794232], [-89.804471, 30.790042], [-89.812175, 30.787652], [-89.81246, 30.793123], [-89.819345, 30.795023], [-89.820087, 30.782391], [-89.824384, 30.77962], [-89.829526, 30.78256], [-89.828756, 30.768736], [-89.831537, 30.76761], [-89.83479, 30.771552], [-89.825635, 30.757691], [-89.833484, 30.753951], [-89.830233, 30.751357], [-89.822458, 30.75399], [-89.828623, 30.737351], [-89.82029, 30.740694], [-89.816075, 30.738908], [-89.819203, 30.736893], [-89.834012, 30.736906], [-89.837214, 30.733891], [-89.827522, 30.731551], [-89.836331, 30.727197], [-89.825758, 30.727045], [-89.831016, 30.723069], [-89.831439, 30.715396], [-89.842525, 30.719942], [-89.840111, 30.711818], [-89.846655, 30.705726], [-89.843605, 30.702511], [-89.838065, 30.704036], [-89.835938, 30.699902], [-89.838324, 30.695121], [-89.835294, 30.691793], [-89.845019, 30.690625], [-89.845444, 30.687293], [-89.837333, 30.687291], [-89.842231, 30.679929], [-89.837122, 30.677905], [-89.847201, 30.670038], [-89.843816, 30.668761], [-89.840591, 30.673648], [-89.837835, 30.671917], [-89.843246, 30.663736], [-89.848731, 30.66542], [-89.85231, 30.662408]]]}}, {"type": "Feature", "properties": {"id": "mobile", "kind": "zone", "name": "Mobile", "counties": "Baldwin (Alabama), Mobile (Alabama)", "settings": "us-al-mob-settings.json"}, "geometry": {"type": "Polygon", "coordinates": [[[-88.432007, 31.114298], [-88.384431, 30.158543], [-88.359756, 30.174536], [-88.347719, 30.190088], [-88.324934, 30.180242], [-88.303023, 30.177962], [-88.162022, 30.200093], [-88.13161, 30.173621], [-88.103417, 30.166377], [-88.092761, 30.156343], [-88.074869, 30.147149], [-88.046104, 30.144689], [-88.02077, 30.155218], [-88.003618, 30.173417], [-87.987409, 30.17789], [-87.807153, 30.177378], [-87.718002, 30.19176], [-87.647824, 30.199211], [-87.518346, 30.229506], [-87.51838, 30.283901], [-87.452378, 30.300201], [-87.450078, 30.3111], [-87.483679, 30.304801], [-87.50348, 30.307601], [-87.504701, 30.324039], [-87.49998, 30.328957], [-87.471879, 30.3318], [-87.459278, 30.337], [-87.450778, 30.346999], [-87.451378, 30.367199], [-87.439878, 30.378899], [-87.440678, 30.391498], [-87.430878, 30.404798], [-87.424377, 30.409798], [-87.402977, 30.410398], [-87.394576, 30.418097], [-87.378376, 30.425397], [-87.366591, 30.436648], [-87.370768, 30.446865], [-87.399577, 30.450897], [-87.414677, 30.457296], [-87.427078, 30.467496], [-87.430478, 30.476396], [-87.435578, 30.480496], [-87.434078, 30.487196], [-87.428578, 30.489696], [-87.431878, 30.493696], [-87.430978, 30.498295], [-87.447702, 30.510458], [-87.445075, 30.523856], [-87.446974, 30.526457], [-87.440277, 30.531338], [-87.440848, 30.536644], [-87.436823, 30.540242], [-87.434883, 30.549434], [-87.427554, 30.553681], [-87.426448, 30.558774], [-87.417928, 30.562402], [-87.417137, 30.570692], [-87.412191, 30.573716], [-87.408018, 30.583701], [-87.405691, 30.603411], [-87.396655, 30.608876], [-87.393294, 30.627218], [-87.394336, 30.645612], [-87.396818, 30.65485], [-87.403327, 30.658033], [-87.406356, 30.674437], [-87.419041, 30.678528], [-87.429819, 30.687987], [-87.440375, 30.690362], [-87.449566, 30.69896], [-87.458013, 30.696398], [-87.466742, 30.700655], [-87.479312, 30.7096], [-87.478293, 30.713711], [-87.481899, 30.717314], [-87.501502, 30.721092], [-87.511928, 30.733768], [-87.529977, 30.740952], [-87.535114, 30.749448], [-87.535985, 30.761192], [-87.545847, 30.771756], [-87.544789, 30.778395], [-87.568252, 30.800113], [-87.571752, 30.800199], [-87.582241, 30.812741], [-87.600792, 30.821288], [-87.604314, 30.831419], [-87.615245, 30.83421], [-87.616986, 30.840197], [-87.626224, 30.846664], [-87.626006, 30.857438], [-87.634896, 30.866261], [-87.629103, 30.880425], [-87.62027, 30.887404], [-87.621832, 30.896952], [-87.615456, 30.902082], [-87.588957, 30.961351], [-87.598829, 30.997455], [-87.615431, 30.997361], [-87.61589, 31.244458], [-87.641374, 31.24447], [-87.645906, 31.248918], [-87.662469, 31.252984], [-87.676419, 31.261992], [-87.688079, 31.275423], [-87.690614, 31.282916], [-87.701714, 31.285229], [-87.705345, 31.294488], [-87.714634, 31.302048], [-87.738202, 31.302705], [-87.748713, 31.297155], [-87.759225, 31.299634], [-87.77158, 31.293719], [-87.792338, 31.299884], [-87.79744, 31.305314], [-87.798929, 31.316212], [-87.805591, 31.318695], [-87.808878, 31.315275], [-87.808973, 31.306638], [-87.794457, 31.287813], [-87.785775, 31.282944], [-87.785523, 31.27579], [-87.799612, 31.269543], [-87.818219, 31.278623], [-87.825288, 31.278912], [-87.833698, 31.259076], [-87.841288, 31.255937], [-87.849284, 31.260007], [-87.852545, 31.258474], [-87.852336, 31.253711], [-87.842377, 31.255466], [-87.837105, 31.247254], [-87.844628, 31.239335], [-87.83565, 31.228639], [-87.841342, 31.225411], [-87.852912, 31.236986], [-87.860066, 31.2354], [-87.863757, 31.2311], [-87.859657, 31.218441], [-87.848503, 31.208378], [-87.853499, 31.203445], [-87.859946, 31.204633], [-87.869774, 31.215765], [-87.874996, 31.214741], [-87.873337, 31.204541], [-87.876672, 31.198387], [-87.885751, 31.201393], [-87.885929, 31.20541], [-87.889581, 31.204349], [-87.899211, 31.197352], [-87.906237, 31.199162], [-87.911366, 31.191063], [-87.915496, 31.189966], [-87.913637, 31.187356], [-87.918249, 31.185611], [-87.946588, 31.19293], [-87.946979, 31.176104], [-87.940935, 31.165848], [-87.943748, 31.161341], [-87.972869, 31.162694], [-87.98882, 31.173306], [-88.022649, 31.144267], [-88.329782, 31.143821], [-88.329927, 31.114357], [-88.432007, 31.114298]]]}}, {"type": "Feature", "properties": {"id": "jacksonville", "kind": "zone", "name": "Jacksonville", "counties": "Clay (Florida), Duval (Florida)", "settings": "gc-default-settings.json"}, "geometry": {"type": "Polygon", "coordinates": [[[-82.049331, 30.27334], [-82.046112, 29.747129], [-82.049244, 29.71867], [-82.028917, 29.718681], [-82.00707, 29.73949], [-81.991073, 29.743952], [-81.976228, 29.747114], [-81.939427, 29.747497], [-81.93111, 29.75613], [-81.923497, 29.780919], [-81.914192, 29.791399], [-81.89068, 29.79821], [-81.861994, 29.800187], [-81.821872, 29.82634], [-81.81243, 29.83649], [-81.581207, 29.840176], [-81.599013, 29.875422], [-81.607606, 29.905655], [-81.607738, 29.918628], [-81.598711, 29.942952], [-81.604867, 29.963498], [-81.624812, 29.981572], [-81.678243, 30.012233], [-81.688876, 30.028566], [-81.689756, 30.058823], [-81.68056, 30.082654], [-81.680215, 30.12124], [-81.650514, 30.121541], [-81.623813, 30.133641], [-81.612312, 30.132941], [-81.590511, 30.125841], [-81.580882, 30.1261], [-81.567787, 30.117789], [-81.539009, 30.119942], [-81.538707, 30.103748], [-81.434653, 30.105277], [-81.436929, 30.252335], [-81.317928, 30.252939], [-81.330627, 30.299481], [-81.33538, 30.337771], [-81.335381, 30.361292], [-81.321563, 30.378574], [-81.317461, 30.394077], [-81.319799, 30.416465], [-81.33229, 30.433036], [-81.353574, 30.44666], [-81.352445, 30.482119], [-81.358793, 30.501504], [-81.442111, 30.509138], [-81.450811, 30.519238], [-81.484397, 30.537444], [-81.490962, 30.554623], [-81.499575, 30.563793], [-81.514014, 30.567337], [-81.523814, 30.556337], [-81.519948, 30.543645], [-81.526312, 30.531175], [-81.530238, 30.52629], [-81.543018, 30.523889], [-81.550778, 30.531562], [-81.550926, 30.543027], [-81.555251, 30.544528], [-81.567809, 30.536636], [-81.577218, 30.538037], [-81.58541, 30.544206], [-81.588915, 30.549047], [-81.584406, 30.565988], [-81.592127, 30.565326], [-81.601754, 30.560561], [-81.605723, 30.554401], [-81.610212, 30.55438], [-81.614269, 30.562383], [-81.60146, 30.567665], [-81.603325, 30.572586], [-81.611002, 30.575938], [-81.604932, 30.582606], [-81.606158, 30.585566], [-81.615782, 30.580215], [-81.624513, 30.586232], [-81.637016, 30.578316], [-81.641857, 30.580089], [-81.645113, 30.576021], [-81.649078, 30.576795], [-81.659623, 30.565295], [-81.662399, 30.558727], [-81.662283, 30.554587], [-81.659328, 30.553864], [-81.663733, 30.550842], [-81.672616, 30.556075], [-81.667833, 30.560671], [-81.672809, 30.559745], [-81.669397, 30.563301], [-81.673941, 30.566187], [-81.677568, 30.562139], [-81.684202, 30.566362], [-81.686411, 30.562908], [-81.692095, 30.567172], [-81.695521, 30.56317], [-81.69756, 30.569643], [-81.701382, 30.563553], [-81.704592, 30.563643], [-81.703935, 30.56736], [-81.709575, 30.565896], [-81.71594, 30.571236], [-81.722444, 30.570939], [-81.723168, 30.567316], [-81.729104, 30.565445], [-81.725551, 30.561335], [-81.727377, 30.559558], [-81.730935, 30.562417], [-81.729813, 30.558256], [-81.73521, 30.559031], [-81.736553, 30.556481], [-81.733788, 30.551626], [-81.736282, 30.552566], [-81.737306, 30.5484], [-81.734504, 30.547778], [-81.738168, 30.534883], [-81.746923, 30.530819], [-81.763748, 30.534916], [-81.765322, 30.51844], [-81.781624, 30.503336], [-81.794918, 30.505406], [-81.809526, 30.484537], [-82.049331, 30.27334]]]}}, {"type": "Feature", "properties": {"id": "lake-charles", "kind": "zone", "name": "Lake Charles", "counties": "Allen (Louisiana), Beauregard (Louisiana), Calcasieu (Louisiana), Cameron (Louisiana), Jefferson Davis (Louisiana)", "settings": "gc-default-settings.json"}, "geometry": {"type": "Polygon", "coordinates": [[[-93.929208, 29.802952], [-93.926504, 29.78956], [-93.922407, 29.785048], [-93.892246, 29.765241], [-93.891637, 29.744618], [-93.87002, 29.735482], [-93.837412, 29.689885], [-93.814351, 29.596576], [-93.800644, 29.598342], [-93.785928, 29.605942], [-93.77036, 29.623924], [-93.765455, 29.64413], [-93.770147, 29.670825], [-93.750001, 29.67973], [-93.711547, 29.690347], [-93.514594, 29.715118], [-93.432758, 29.71853], [-93.387246, 29.713771], [-93.3655, 29.699416], [-93.339294, 29.695085], [-93.310787, 29.702004], [-93.298257, 29.710341], [-93.287354, 29.724331], [-93.268478, 29.727439], [-93.223168, 29.726396], [-93.12515, 29.706209], [-93.029108, 29.677855], [-92.964517, 29.654541], [-92.767597, 29.570933], [-92.665789, 29.537875], [-92.616056, 29.527103], [-92.616033, 30.03826], [-92.737217, 30.037455], [-92.723869, 30.048652], [-92.716455, 30.048164], [-92.697321, 30.054393], [-92.694554, 30.061677], [-92.684644, 30.059503], [-92.673883, 30.070637], [-92.660783, 30.069075], [-92.655103, 30.078465], [-92.64862, 30.072811], [-92.642473, 30.074247], [-92.639107, 30.071771], [-92.631399, 30.077981], [-92.632778, 30.084901], [-92.626584, 30.085667], [-92.629903, 30.087789], [-92.628388, 30.09183], [-92.619018, 30.093896], [-92.620755, 30.099185], [-92.618338, 30.10415], [-92.624828, 30.112086], [-92.62514, 30.118997], [-92.622427, 30.1203], [-92.628449, 30.126243], [-92.622408, 30.128437], [-92.622058, 30.133234], [-92.62864, 30.133743], [-92.626467, 30.141366], [-92.622379, 30.143511], [-92.621773, 30.147967], [-92.614373, 30.149854], [-92.607983, 30.15858], [-92.609181, 30.162782], [-92.615203, 30.165975], [-92.611704, 30.171461], [-92.618706, 30.174766], [-92.60806, 30.175212], [-92.602076, 30.180116], [-92.592535, 30.179866], [-92.590644, 30.192394], [-92.594163, 30.193085], [-92.59454, 30.197101], [-92.59054, 30.198828], [-92.591055, 30.201623], [-92.58351, 30.201619], [-92.593293, 30.207423], [-92.603325, 30.2067], [-92.615977, 30.216867], [-92.612969, 30.218358], [-92.614872, 30.224271], [-92.626612, 30.230272], [-92.622483, 30.239442], [-92.625551, 30.244681], [-92.621883, 30.250818], [-92.627783, 30.258175], [-92.625139, 30.257819], [-92.624399, 30.262828], [-92.626645, 30.263263], [-92.624006, 30.267275], [-92.625872, 30.274174], [-92.62298, 30.274427], [-92.626813, 30.290516], [-92.623705, 30.292992], [-92.627839, 30.296018], [-92.623211, 30.305577], [-92.629226, 30.318001], [-92.628432, 30.321118], [-92.622797, 30.321508], [-92.625527, 30.327649], [-92.620477, 30.3285], [-92.618526, 30.33611], [-92.62654, 30.345413], [-92.62802, 30.351158], [-92.624172, 30.356168], [-92.628998, 30.361889], [-92.624868, 30.367553], [-92.629925, 30.371362], [-92.629723, 30.377891], [-92.626016, 30.382485], [-92.620773, 30.382831], [-92.620828, 30.386155], [-92.616624, 30.385102], [-92.614062, 30.388839], [-92.608402, 30.385884], [-92.604306, 30.39008], [-92.605398, 30.407202], [-92.60088, 30.41887], [-92.595432, 30.421714], [-92.603267, 30.434388], [-92.602713, 30.439131], [-92.608983, 30.441284], [-92.613432, 30.450543], [-92.619598, 30.45391], [-92.623516, 30.460486], [-92.621612, 30.465003], [-92.625135, 30.465447], [-92.633495, 30.483616], [-92.630028, 30.483569], [-92.630321, 30.488012], [-92.626558, 30.48916], [-92.622799, 30.498375], [-92.615049, 30.505356], [-92.615874, 30.513035], [-92.62329, 30.517982], [-92.622127, 30.520917], [-92.614558, 30.528461], [-92.606219, 30.529312], [-92.603842, 30.534581], [-92.599443, 30.535249], [-92.5991, 30.539146], [-92.60159, 30.539649], [-92.593622, 30.546917], [-92.592963, 30.557233], [-92.590738, 30.554872], [-92.585256, 30.559022], [-92.586633, 30.561497], [-92.582741, 30.566013], [-92.597537, 30.581747], [-92.597719, 30.898948], [-92.72089, 30.898711], [-92.720966, 30.891362], [-92.82387, 30.892071], [-92.824169, 30.877234], [-93.029459, 30.879699], [-93.133954, 30.877772], [-93.134071, 30.883131], [-93.151168, 30.883615], [-93.423885, 30.88374], [-93.429485, 30.880405], [-93.434909, 30.881819], [-93.445146, 30.873137], [-93.478718, 30.859183], [-93.490411, 30.866056], [-93.500344, 30.865026], [-93.503255, 30.869545], [-93.509635, 30.868526], [-93.517136, 30.875629], [-93.523157, 30.875768], [-93.523993, 30.879838], [-93.539547, 30.880908], [-93.544166, 30.876925], [-93.554597, 30.877461], [-93.561911, 30.858332], [-93.557314, 30.852081], [-93.568501, 30.845259], [-93.553626, 30.83514], [-93.55732, 30.828419], [-93.554433, 30.823524], [-93.564579, 30.816402], [-93.560707, 30.809639], [-93.569318, 30.802962], [-93.583775, 30.801779], [-93.581921, 30.788979], [-93.589381, 30.786676], [-93.583165, 30.778596], [-93.591731, 30.776664], [-93.592101, 30.763675], [-93.609178, 30.75726], [-93.614346, 30.760195], [-93.614777, 30.756064], [-93.608364, 30.748127], [-93.609946, 30.744649], [-93.61913, 30.741997], [-93.610645, 30.734279], [-93.610942, 30.722195], [-93.605391, 30.717159], [-93.608005, 30.715347], [-93.61437, 30.719832], [-93.617229, 30.71858], [-93.616437, 30.712388], [-93.624466, 30.701083], [-93.620442, 30.694142], [-93.631345, 30.677872], [-93.63964, 30.672505], [-93.645306, 30.673481], [-93.648584, 30.667647], [-93.654972, 30.670185], [-93.661251, 30.661203], [-93.670358, 30.658007], [-93.670536, 30.652626], [-93.6831, 30.640763], [-93.680415, 30.634877], [-93.684715, 30.63081], [-93.685121, 30.625201], [-93.681983, 30.618584], [-93.689072, 30.610836], [-93.683372, 30.608249], [-93.678662, 30.594097], [-93.685066, 30.592086], [-93.686573, 30.58572], [-93.691552, 30.585482], [-93.687804, 30.590138], [-93.693976, 30.594217], [-93.703297, 30.588773], [-93.713782, 30.587584], [-93.714032, 30.580284], [-93.717911, 30.577767], [-93.721493, 30.580553], [-93.728184, 30.57287], [-93.723945, 30.559224], [-93.731423, 30.552861], [-93.729179, 30.544851], [-93.740253, 30.539569], [-93.732209, 30.535805], [-93.733821, 30.531735], [-93.72668, 30.525211], [-93.714322, 30.518562], [-93.708633, 30.522034], [-93.707692, 30.519971], [-93.711705, 30.510754], [-93.70634, 30.508945], [-93.715145, 30.501268], [-93.708536, 30.500397], [-93.716602, 30.494424], [-93.709763, 30.482649], [-93.717421, 30.483822], [-93.711081, 30.476877], [-93.711061, 30.468749], [-93.699426, 30.459512], [-93.707144, 30.456547], [-93.702103, 30.449759], [-93.706945, 30.443994], [-93.697461, 30.443185], [-93.698135, 30.43888], [-93.704154, 30.434353], [-93.703254, 30.429447], [-93.712747, 30.433175], [-93.717062, 30.423114], [-93.722953, 30.432097], [-93.726106, 30.43072], [-93.726834, 30.423642], [-93.722749, 30.419557], [-93.72671, 30.419392], [-93.730608, 30.41333], [-93.733917, 30.414935], [-93.738273, 30.403963], [-93.757409, 30.390813], [-93.754981, 30.372899], [-93.755356, 30.368956], [-93.759215, 30.368754], [-93.751242, 30.360587], [-93.755898, 30.357038], [-93.75881, 30.360736], [-93.761022, 30.359168], [-93.758703, 30.354075], [-93.761539, 30.35223], [-93.75821, 30.350782], [-93.762308, 30.34646], [-93.759533, 30.342323], [-93.765297, 30.342448], [-93.758922, 30.338547], [-93.765851, 30.333105], [-93.762113, 30.329471], [-93.755584, 30.331505], [-93.75604, 30.325706], [-93.740965, 30.30669], [-93.744352, 30.305451], [-93.743029, 30.301772], [-93.738281, 30.303627], [-93.729046, 30.296705], [-93.718347, 30.295788], [-93.712269, 30.292331], [-93.713746, 30.288909], [-93.709935, 30.288279], [-93.70933, 30.29221], [-93.704584, 30.289949], [-93.708596, 30.284283], [-93.708446, 30.281031], [-93.704917, 30.28083], [-93.708717, 30.265081], [-93.703544, 30.259321], [-93.708928, 30.251653], [-93.709018, 30.243963], [-93.703218, 30.239759], [-93.709569, 30.237666], [-93.705288, 30.233359], [-93.710837, 30.233837], [-93.713427, 30.229466], [-93.71003, 30.228313], [-93.713113, 30.226001], [-93.712152, 30.219815], [-93.718463, 30.219998], [-93.720689, 30.215481], [-93.717119, 30.212626], [-93.720931, 30.208461], [-93.717234, 30.206208], [-93.714192, 30.208659], [-93.717523, 30.193085], [-93.710058, 30.196971], [-93.706044, 30.193978], [-93.706082, 30.19154], [-93.712507, 30.192483], [-93.712423, 30.187172], [-93.709364, 30.18687], [-93.710541, 30.179729], [-93.70424, 30.174185], [-93.700254, 30.174549], [-93.703, 30.171695], [-93.702716, 30.161748], [-93.706996, 30.157465], [-93.706532, 30.147424], [-93.697737, 30.152946], [-93.693303, 30.141899], [-93.688834, 30.139945], [-93.692849, 30.135213], [-93.701255, 30.137378], [-93.700692, 30.125105], [-93.707954, 30.120016], [-93.702436, 30.112721], [-93.712997, 30.107857], [-93.714597, 30.101825], [-93.723109, 30.094866], [-93.724805, 30.082098], [-93.731016, 30.089446], [-93.734085, 30.08613], [-93.715462, 30.068917], [-93.703105, 30.066261], [-93.700189, 30.057], [-93.711074, 30.054391], [-93.713772, 30.065687], [-93.719453, 30.063808], [-93.721298, 30.052349], [-93.73671, 30.038387], [-93.743078, 30.020051], [-93.758534, 30.012499], [-93.771575, 29.995924], [-93.786935, 29.99058], [-93.806551, 29.957445], [-93.817286, 29.918422], [-93.838374, 29.882853], [-93.859896, 29.859921], [-93.895575, 29.840247], [-93.91636, 29.824968], [-93.92572, 29.814744], [-93.929208, 29.802952]]]}}, {"type": "Feature", "properties": {"id": "lafayette", "kind": "zone", "name": "Lafayette", "counties": "Acadia (Louisiana), Evangeline (Louisiana), Iberia (Louisiana), Lafayette (Louisiana), St. Landry (Louisiana), St. Martin (Louisiana), Vermilion (Louisiana)", "settings": "gc-default-settings.json"}, "geometry": {"type": "Polygon", "coordinates": [[[-92.737217, 30.037455], [-92.616033, 30.03826], [-92.617306, 29.527129], [-92.405016, 29.500289], [-92.353661, 29.488716], [-92.29367, 29.481496], [-92.263982, 29.484149], [-92.231657, 29.491894], [-92.183325, 29.518334], [-92.146666, 29.532037], [-92.114142, 29.535143], [-92.100083, 29.531672], [-92.07805, 29.531489], [-92.045616, 29.505806], [-92.036529, 29.483342], [-92.022754, 29.470636], [-92.007308, 29.463375], [-91.983867, 29.460713], [-91.964831, 29.439392], [-91.913207, 29.420207], [-91.91066, 29.396117], [-91.897652, 29.375219], [-91.875032, 29.361992], [-91.859843, 29.358942], [-91.840934, 29.36019], [-91.823027, 29.366307], [-91.793183, 29.382544], [-91.77749, 29.396084], [-91.762919, 29.385754], [-91.749308, 29.380869], [-91.736718, 29.369647], [-91.712193, 29.360626], [-91.688901, 29.361593], [-91.662529, 29.374588], [-91.644044, 29.375555], [-91.619273, 29.362024], [-91.591864, 29.359375], [-91.5913, 29.507701], [-91.723254, 29.661297], [-91.935162, 29.672578], [-91.841051, 29.750411], [-91.711283, 29.846131], [-91.624347, 29.94546], [-91.255229, 29.971457], [-91.259932, 29.985598], [-91.259388, 30.0002], [-91.235889, 30.001128], [-91.221729, 30.031739], [-91.225448, 30.042273], [-91.230033, 30.041903], [-91.2407, 30.02935], [-91.244729, 30.031107], [-91.255942, 30.039776], [-91.269085, 30.059308], [-91.353772, 30.061091], [-91.366735, 30.054699], [-91.372066, 30.062451], [-91.368752, 30.072397], [-91.37176, 30.081562], [-91.37616, 30.085798], [-91.378025, 30.094851], [-91.38925, 30.099256], [-91.388841, 30.102445], [-91.463898, 30.102682], [-91.472139, 30.114159], [-91.461313, 30.131246], [-91.472468, 30.142702], [-91.468183, 30.148957], [-91.467893, 30.160378], [-91.471797, 30.186266], [-91.490243, 30.201912], [-91.488136, 30.21085], [-91.475303, 30.229491], [-91.508268, 30.240297], [-91.56276, 30.241949], [-91.575655, 30.247773], [-91.590302, 30.260184], [-91.587732, 30.273282], [-91.589959, 30.277047], [-91.621055, 30.309938], [-91.627544, 30.330102], [-91.624591, 30.338503], [-91.627209, 30.349203], [-91.625483, 30.354209], [-91.648118, 30.365068], [-91.641491, 30.373638], [-91.629032, 30.377933], [-91.624655, 30.394369], [-91.630019, 30.407084], [-91.628087, 30.413915], [-91.639568, 30.429032], [-91.637172, 30.434866], [-91.640078, 30.442673], [-91.64572, 30.444221], [-91.674766, 30.474546], [-91.685488, 30.476343], [-91.692453, 30.481301], [-91.701316, 30.492556], [-91.701339, 30.497747], [-91.756209, 30.498133], [-91.750115, 30.508589], [-91.735925, 30.50824], [-91.731432, 30.512119], [-91.732823, 30.520314], [-91.742178, 30.53158], [-91.757187, 30.566815], [-91.751066, 30.598877], [-91.754001, 30.617426], [-91.740996, 30.632538], [-91.74643, 30.658782], [-91.731492, 30.669772], [-91.736199, 30.679253], [-91.733673, 30.70173], [-91.751897, 30.735802], [-91.757942, 30.74099], [-91.75522, 30.756571], [-91.768759, 30.785389], [-91.807295, 30.811069], [-91.807522, 30.820301], [-91.798459, 30.828991], [-91.804619, 30.840733], [-91.815258, 30.848107], [-92.237794, 30.84828], [-92.238281, 30.892158], [-92.280715, 30.935954], [-92.280738, 30.965071], [-92.330798, 30.963304], [-92.325493, 30.970525], [-92.330496, 30.973052], [-92.343988, 30.9704], [-92.344739, 30.973841], [-92.340329, 30.977441], [-92.341763, 30.981503], [-92.358276, 30.985164], [-92.36161, 30.992153], [-92.371271, 30.991071], [-92.373608, 30.996001], [-92.376768, 30.995504], [-92.376599, 30.999473], [-92.38819, 31.00156], [-92.409377, 30.992288], [-92.408074, 30.98899], [-92.418651, 30.974968], [-92.43887, 30.969792], [-92.459669, 30.955754], [-92.46861, 30.957802], [-92.47302, 30.951954], [-92.48033, 30.952271], [-92.482436, 30.941424], [-92.478858, 30.925127], [-92.48103, 30.917619], [-92.487246, 30.90908], [-92.495186, 30.904902], [-92.495177, 30.901662], [-92.524646, 30.893328], [-92.52803, 30.898844], [-92.540529, 30.897915], [-92.547965, 30.903084], [-92.567254, 30.896237], [-92.597798, 30.896001], [-92.597537, 30.581747], [-92.582741, 30.566013], [-92.586633, 30.561497], [-92.585256, 30.559022], [-92.590738, 30.554872], [-92.592963, 30.557233], [-92.593622, 30.546917], [-92.60159, 30.539649], [-92.5991, 30.539146], [-92.599443, 30.535249], [-92.603842, 30.534581], [-92.606219, 30.529312], [-92.614558, 30.528461], [-92.622127, 30.520917], [-92.62329, 30.517982], [-92.615874, 30.513035], [-92.615049, 30.505356], [-92.622799, 30.498375], [-92.626558, 30.48916], [-92.630321, 30.488012], [-92.630028, 30.483569], [-92.633495, 30.483616], [-92.625135, 30.465447], [-92.621612, 30.465003], [-92.623516, 30.460486], [-92.619598, 30.45391], [-92.613432, 30.450543], [-92.608983, 30.441284], [-92.602713, 30.439131], [-92.603267, 30.434388], [-92.595432, 30.421714], [-92.60088, 30.41887], [-92.605398, 30.407202], [-92.604306, 30.39008], [-92.608402, 30.385884], [-92.614062, 30.388839], [-92.616624, 30.385102], [-92.620828, 30.386155], [-92.620773, 30.382831], [-92.626016, 30.382485], [-92.629723, 30.377891], [-92.629925, 30.371362], [-92.624868, 30.367553], [-92.628998, 30.361889], [-92.624172, 30.356168], [-92.62802, 30.351158], [-92.62654, 30.345413], [-92.618526, 30.33611], [-92.620477, 30.3285], [-92.625527, 30.327649], [-92.622797, 30.321508], [-92.628432, 30.321118], [-92.629226, 30.318001], [-92.623211, 30.305577], [-92.627839, 30.296018], [-92.623705, 30.292992], [-92.626813, 30.290516], [-92.62298, 30.274427], [-92.625872, 30.274174], [-92.624006, 30.267275], [-92.626645, 30.263263], [-92.624399, 30.262828], [-92.625139, 30.257819], [-92.627783, 30.258175], [-92.621883, 30.250818], [-92.625551, 30.244681], [-92.622483, 30.239442], [-92.626612, 30.230272], [-92.614872, 30.224271], [-92.612969, 30.218358], [-92.615977, 30.216867], [-92.603325, 30.2067], [-92.593293, 30.207423], [-92.58351, 30.201619], [-92.591055, 30.201623], [-92.59054, 30.198828], [-92.59454, 30.197101], [-92.594163, 30.193085], [-92.590644, 30.192394], [-92.592535, 30.179866], [-92.602076, 30.180116], [-92.60806, 30.175212], [-92.618706, 30.174766], [-92.611704, 30.171461], [-92.615203, 30.165975], [-92.609181, 30.162782], [-92.607983, 30.15858], [-92.614373, 30.149854], [-92.621773, 30.147967], [-92.622379, 30.143511], [-92.626467, 30.141366], [-92.62864, 30.133743], [-92.622058, 30.133234], [-92.622408, 30.128437], [-92.628449, 30.126243], [-92.622427, 30.1203], [-92.62514, 30.118997], [-92.624828, 30.112086], [-92.618338, 30.10415], [-92.620755, 30.099185], [-92.619018, 30.093896], [-92.628388, 30.09183], [-92.629903, 30.087789], [-92.626584, 30.085667], [-92.632778, 30.084901], [-92.631399, 30.077981], [-92.639107, 30.071771], [-92.642473, 30.074247], [-92.64862, 30.072811], [-92.655103, 30.078465], [-92.660783, 30.069075], [-92.673883, 30.070637], [-92.684644, 30.059503], [-92.694554, 30.061677], [-92.697321, 30.054393], [-92.716455, 30.048164], [-92.723869, 30.048652], [-92.737217, 30.037455]]]}}, {"type": "Feature", "properties": {"id": "new-orleans", "kind": "zone", "name": "New Orleans", "counties": "Adams (Mississippi), Amite (Mississippi), Ascension (Louisiana), Assumption (Louisiana), Concordia (Louisiana), Covington (Mississippi), East Baton Rouge (Louisiana), East Feliciana (Louisiana), Forrest (Mississippi), Franklin (Mississippi), Greene (Mississippi), Iberville (Louisiana), Jefferson Davis (Mississippi), Jefferson (Louisiana), Jones (Mississippi), Lafourche (Louisiana), Lamar (Mississippi), Lawrence (Mississippi), Lincoln (Mississippi), Livingston (Louisiana), Marion (Mississippi), Orleans (Louisiana), Perry (Mississippi), Pike (Mississippi), Plaquemines (Louisiana), Pointe Coupee (Louisiana), St. Bernard (Louisiana), St. Charles (Louisiana), St. Helena (Louisiana), St. James (Louisiana), St. John the Baptist (Louisiana), St. Mary (Louisiana), St. Tammany (Louisiana), Tangipahoa (Louisiana), Terrebonne (Louisiana), Walthall (Mississippi), Washington (Louisiana), Wayne (Mississippi), West Baton Rouge (Louisiana), West Feliciana (Louisiana), Wilkinson (Mississippi)", "settings": "gc-default-settings.json"}, "geometry": {"type": "Polygon", "coordinates": [[[-91.935162, 29.672578], [-91.723254, 29.661297], [-91.5913, 29.507701], [-91.591864, 29.359375], [-91.560748, 29.345398], [-91.544703, 29.342885], [-91.52974, 29.344455], [-91.421128, 29.302828], [-91.405024, 29.288065], [-91.391649, 29.281873], [-91.376909, 29.262585], [-91.341698, 29.227449], [-91.318698, 29.208357], [-91.292681, 29.196177], [-91.237255, 29.177743], [-91.207845, 29.171159], [-91.159817, 29.168422], [-91.14594, 29.162975], [-91.125426, 29.14646], [-91.103303, 29.138377], [-91.02001, 29.121771], [-90.974925, 29.121509], [-90.960372, 29.111064], [-90.989396, 29.106446], [-91.012069, 29.090538], [-91.023031, 29.067398], [-91.020756, 29.046065], [-91.008759, 29.026902], [-90.993453, 29.01497], [-90.970287, 29.005027], [-90.932105, 28.994319], [-90.90708, 28.991132], [-90.864562, 28.991593], [-90.822648, 28.985911], [-90.746858, 28.988595], [-90.707191, 28.995756], [-90.552547, 29.036806], [-90.491817, 29.011805], [-90.409632, 28.995388], [-90.384935, 28.998072], [-90.368409, 29.003425], [-90.344319, 29.003178], [-90.239062, 29.033104], [-90.210078, 29.033082], [-90.162662, 29.051249], [-90.125136, 29.069859], [-90.05557, 29.121961], [-90.032325, 29.135044], [-89.610427, 29.198635], [-89.553649, 29.185976], [-89.520469, 29.172187], [-89.502319, 29.158376], [-89.486137, 29.137218], [-89.481208, 29.122201], [-89.468673, 29.107461], [-89.463424, 29.08282], [-89.465736, 28.974437], [-89.469406, 28.956176], [-89.488899, 28.927518], [-89.492858, 28.90796], [-89.48764, 28.887371], [-89.467315, 28.866508], [-89.449455, 28.858148], [-89.433799, 28.855266], [-89.400993, 28.860631], [-89.384727, 28.871503], [-89.344535, 28.90997], [-89.320668, 28.934395], [-89.305148, 28.956091], [-89.279604, 28.977783], [-89.234903, 28.987152], [-89.224366, 28.977486], [-89.209579, 28.970199], [-89.20485, 28.952927], [-89.196536, 28.939964], [-89.185332, 28.930478], [-89.169067, 28.922574], [-89.150994, 28.919096], [-89.133284, 28.919728], [-89.11485, 28.926368], [-89.096055, 28.942493], [-89.088826, 28.961147], [-89.045638, 29.006942], [-89.025912, 29.015613], [-89.012688, 29.02768], [-89.002914, 29.048797], [-88.996902, 29.085304], [-88.985386, 29.094185], [-88.967436, 29.095073], [-88.94576, 29.103954], [-88.921713, 29.124971], [-88.9146, 29.143621], [-88.913923, 29.165527], [-88.917648, 29.17944], [-88.909151, 29.200161], [-88.908812, 29.210226], [-88.910169, 29.220291], [-88.91831, 29.236276], [-88.942054, 29.253742], [-88.967495, 29.262622], [-88.98242, 29.263214], [-89.000045, 29.271484], [-89.022615, 29.274463], [-89.069426, 29.294297], [-89.077228, 29.301105], [-89.085319, 29.318609], [-89.094528, 29.328932], [-89.112159, 29.339672], [-89.12162, 29.366498], [-89.137612, 29.381429], [-89.142073, 29.429465], [-89.119451, 29.458065], [-89.06178, 29.475003], [-89.038874, 29.492229], [-89.017356, 29.519033], [-89.000038, 29.532531], [-88.960204, 29.577104], [-88.912657, 29.61178], [-88.869937, 29.657099], [-88.810599, 29.734571], [-88.797293, 29.759667], [-88.774707, 29.818137], [-88.762723, 29.866988], [-88.758388, 29.918271], [-88.760151, 29.944553], [-88.764495, 29.971944], [-88.778234, 30.014066], [-88.808521, 30.065478], [-88.834347, 30.090708], [-88.854913, 30.135532], [-89.096476, 30.165829], [-89.183669, 30.212155], [-89.260977, 30.181998], [-89.306135, 30.177941], [-89.416711, 30.177639], [-89.456818, 30.165733], [-89.494973, 30.16075], [-89.51477, 30.161762], [-89.527634, 30.188169], [-89.534835, 30.195383], [-89.544837, 30.194299], [-89.554626, 30.185911], [-89.567207, 30.180917], [-89.576805, 30.183225], [-89.585693, 30.192241], [-89.596572, 30.211965], [-89.614234, 30.221471], [-89.616928, 30.227672], [-89.614044, 30.244773], [-89.631614, 30.257013], [-89.632057, 30.260223], [-89.626197, 30.262336], [-89.625892, 30.265913], [-89.632316, 30.268604], [-89.631294, 30.279769], [-89.638809, 30.2882], [-89.647178, 30.289367], [-89.640434, 30.295503], [-89.639816, 30.30731], [-89.626502, 30.313903], [-89.632698, 30.32796], [-89.630622, 30.337491], [-89.636512, 30.34727], [-89.645622, 30.348903], [-89.65142, 30.356012], [-89.657287, 30.357183], [-89.661117, 30.364435], [-89.658493, 30.367347], [-89.660484, 30.372634], [-89.669265, 30.381248], [-89.679145, 30.402364], [-89.683708, 30.405586], [-89.68441, 30.411912], [-89.678581, 30.4136], [-89.680313, 30.433374], [-89.685005, 30.440078], [-89.682655, 30.442445], [-89.683631, 30.451787], [-89.685836, 30.454319], [-89.689514, 30.453018], [-89.690035, 30.459333], [-89.695643, 30.463072], [-89.703567, 30.464094], [-89.70819, 30.475936], [-89.71585, 30.477855], [-89.726142, 30.492718], [-89.727508, 30.490269], [-89.737996, 30.495881], [-89.74507, 30.492305], [-89.746912, 30.49403], [-89.742946, 30.495143], [-89.742987, 30.498875], [-89.749565, 30.502377], [-89.757017, 30.499185], [-89.75386, 30.501495], [-89.754241, 30.506219], [-89.757499, 30.505016], [-89.760307, 30.515556], [-89.767486, 30.513036], [-89.768798, 30.518373], [-89.772903, 30.520439], [-89.769958, 30.522468], [-89.769966, 30.529907], [-89.777351, 30.533384], [-89.774681, 30.538608], [-89.779159, 30.544029], [-89.78968, 30.544656], [-89.803919, 30.549349], [-89.79309, 30.547843], [-89.791519, 30.550876], [-89.794774, 30.556845], [-89.80326, 30.558002], [-89.803413, 30.56208], [-89.790908, 30.563053], [-89.786865, 30.569053], [-89.79123, 30.569947], [-89.79277, 30.564174], [-89.795474, 30.565067], [-89.794639, 30.569873], [-89.808311, 30.568351], [-89.809242, 30.579776], [-89.815696, 30.58554], [-89.808311, 30.585269], [-89.807586, 30.587669], [-89.811431, 30.586641], [-89.812782, 30.592288], [-89.818771, 30.59288], [-89.81929, 30.597103], [-89.813955, 30.598299], [-89.822502, 30.604913], [-89.813919, 30.607717], [-89.823257, 30.607711], [-89.822341, 30.619785], [-89.830825, 30.617649], [-89.830299, 30.621854], [-89.823669, 30.62222], [-89.820068, 30.632808], [-89.814094, 30.636425], [-89.815788, 30.639215], [-89.822952, 30.639078], [-89.821144, 30.646509], [-89.824668, 30.64492], [-89.825416, 30.649782], [-89.830314, 30.650766], [-89.833702, 30.657695], [-89.841072, 30.652431], [-89.840476, 30.659877], [-89.85231, 30.662408], [-89.848731, 30.66542], [-89.843246, 30.663736], [-89.838663, 30.669168], [-89.83816, 30.673223], [-89.845129, 30.668724], [-89.847267, 30.670908], [-89.837791, 30.677137], [-89.842231, 30.679929], [-89.838058, 30.688328], [-89.845444, 30.687293], [-89.844172, 30.691504], [-89.835294, 30.691793], [-89.838065, 30.704036], [-89.845926, 30.704157], [-89.846392, 30.706852], [-89.840111, 30.711818], [-89.842525, 30.719942], [-89.831439, 30.715396], [-89.831438, 30.72188], [-89.825758, 30.727045], [-89.834705, 30.726733], [-89.836945, 30.728201], [-89.827522, 30.731551], [-89.837214, 30.733891], [-89.834012, 30.736906], [-89.822039, 30.736686], [-89.816976, 30.73758], [-89.82029, 30.740694], [-89.828623, 30.737351], [-89.822458, 30.75399], [-89.832617, 30.752798], [-89.833244, 30.755517], [-89.827885, 30.755783], [-89.826121, 30.759014], [-89.835234, 30.769316], [-89.83277, 30.771256], [-89.831537, 30.76761], [-89.828756, 30.768736], [-89.829526, 30.78256], [-89.824384, 30.77962], [-89.820087, 30.782391], [-89.819345, 30.795023], [-89.81246, 30.793123], [-89.810797, 30.787532], [-89.804471, 30.790042], [-89.80277, 30.792756], [-89.808065, 30.791636], [-89.807939, 30.795946], [-89.81544, 30.802837], [-89.809544, 30.800197], [-89.804632, 30.802511], [-89.803734, 30.807807], [-89.797333, 30.812592], [-89.798654, 30.820855], [-89.793959, 30.817922], [-89.791745, 30.820387], [-89.785894, 30.815962], [-89.781502, 30.818945], [-89.787493, 30.824193], [-89.782256, 30.831261], [-89.790432, 30.830985], [-89.787471, 30.842781], [-89.79247, 30.850386], [-89.789509, 30.851382], [-89.782649, 30.845264], [-89.780228, 30.846235], [-89.783384, 30.856022], [-89.771722, 30.854677], [-89.772582, 30.85964], [-89.767789, 30.865577], [-89.779114, 30.874831], [-89.775952, 30.881579], [-89.77114, 30.879222], [-89.770027, 30.882254], [-89.773555, 30.886369], [-89.773553, 30.896862], [-89.770269, 30.89939], [-89.760701, 30.896306], [-89.757024, 30.898947], [-89.764202, 30.911906], [-89.759403, 30.915134], [-89.750073, 30.91293], [-89.744789, 30.918933], [-89.745161, 30.922416], [-89.752321, 30.92454], [-89.749333, 30.934957], [-89.756554, 30.941949], [-89.735686, 30.966573], [-89.728041, 30.966518], [-89.727086, 30.969707], [-89.737149, 30.976081], [-89.730964, 30.9789], [-89.727924, 30.992188], [-89.73554, 30.999715], [-89.72814554567397, 31.002328850909517], [-89.551851, 31.001917], [-89.552026, 31.015959], [-89.50134, 31.016026], [-89.501396, 31.001461], [-89.47594, 31.001363], [-89.476022, 30.982901], [-89.425337, 30.982452], [-89.424808, 31.010114], [-89.34895, 31.01037], [-89.348966, 31.001043], [-89.340701, 31.001033], [-89.340806, 30.909912], [-88.834475, 30.910323], [-88.834339, 30.997983], [-88.425432, 30.998323], [-88.473227, 31.893856], [-88.622394, 31.857193], [-88.763411, 31.835934], [-90.123103, 31.751972], [-90.131274, 31.756048], [-90.143601, 31.74716], [-90.163714, 31.74414], [-90.184139, 31.731462], [-90.238803, 31.72048], [-90.252664, 31.712392], [-90.259003, 31.703916], [-90.272402, 31.704222], [-90.279953, 31.699865], [-90.380079, 31.700205], [-90.379409, 31.685194], [-90.41364, 31.68528], [-90.414198, 31.700456], [-90.736824, 31.698491], [-90.73733, 31.611124], [-91.153864, 31.610068], [-91.153841, 31.630488], [-91.233022, 31.629158], [-91.248961, 31.643758], [-91.269454, 31.64754], [-91.270854, 31.650873], [-91.265586, 31.657766], [-91.267023, 31.663897], [-91.300257, 31.672488], [-91.297337, 31.676792], [-91.300384, 31.680933], [-91.291843, 31.691643], [-91.294002, 31.697894], [-91.299095, 31.700089], [-91.297678, 31.70871], [-91.30072, 31.708243], [-91.301028, 31.713863], [-91.307062, 31.711361], [-91.317864, 31.749766], [-91.395102, 31.747257], [-91.39829, 31.753212], [-91.41413, 31.75485], [-91.418581, 31.752238], [-91.422431, 31.755183], [-91.432448, 31.750792], [-91.544743, 31.752252], [-91.53787, 31.745348], [-91.535305, 31.73773], [-91.539102, 31.729658], [-91.548234, 31.722659], [-91.555158, 31.723603], [-91.571204, 31.735048], [-91.584021, 31.755764], [-91.59506, 31.761909], [-91.605322, 31.760064], [-91.618396, 31.740712], [-91.635822, 31.729119], [-91.653984, 31.727275], [-91.662466, 31.729368], [-91.68035, 31.743641], [-91.687963, 31.740932], [-91.696595, 31.731796], [-91.701676, 31.70298], [-91.714273, 31.675992], [-91.705707, 31.648222], [-91.712166, 31.633229], [-91.733116, 31.616213], [-91.745738, 31.614946], [-91.756123, 31.62267], [-91.764476, 31.644154], [-91.775836, 31.648626], [-91.806435, 31.630765], [-91.815127, 31.61917], [-91.827526, 31.587971], [-91.826426, 31.572472], [-91.822426, 31.563372], [-91.786025, 31.537872], [-91.775923, 31.523539], [-91.784124, 31.502273], [-91.804543, 31.487063], [-91.802743, 31.476469], [-91.778953, 31.468115], [-91.731417, 31.465781], [-91.721134, 31.452106], [-91.724119, 31.438833], [-91.738331, 31.431572], [-91.754961, 31.430515], [-91.766493, 31.433135], [-91.776106, 31.440048], [-91.807098, 31.438794], [-91.824156, 31.490419], [-91.830249, 31.498506], [-91.838846, 31.502846], [-91.846156, 31.502585], [-91.855908, 31.49601], [-91.857558, 31.49188], [-91.853995, 31.484109], [-91.86413, 31.466167], [-91.855889, 31.423831], [-91.845524, 31.409495], [-91.821222, 31.396622], [-91.785669, 31.395021], [-91.779956, 31.392507], [-91.776779, 31.385215], [-91.794719, 31.373285], [-91.808047, 31.370718], [-91.824512, 31.37763], [-91.837789, 31.378367], [-91.857223, 31.366296], [-91.8633, 31.354448], [-91.867165, 31.330652], [-91.867042, 31.312367], [-91.862168, 31.302314], [-91.847754, 31.293749], [-91.823646, 31.29321], [-91.823671, 31.277577], [-91.83428, 31.266344], [-91.825967, 31.256334], [-91.814197, 31.250968], [-91.814535, 31.241457], [-91.811001, 31.237087], [-91.783239, 31.223386], [-91.75846, 31.222245], [-91.744642, 31.213253], [-91.73837, 31.204001], [-91.721856, 31.19955], [-91.713824, 31.206835], [-91.704205, 31.208083], [-91.690959, 31.201906], [-91.677302, 31.188047], [-91.683457, 31.177046], [-91.683742, 31.163011], [-91.702705, 31.161812], [-91.719004, 31.134616], [-91.717587, 31.119094], [-91.706046, 31.113585], [-91.703787, 31.103566], [-91.718846, 31.089197], [-91.718195, 31.081403], [-91.710309, 31.078327], [-91.710106, 31.073408], [-91.723804, 31.044254], [-91.750119, 31.018814], [-91.772572, 31.00474], [-91.778319, 30.988763], [-91.803726, 30.977912], [-91.805963, 30.972558], [-91.80018, 30.924621], [-91.802732, 30.867697], [-91.804324, 30.863713], [-91.822304, 30.860414], [-91.823072, 30.856354], [-91.799453, 30.834283], [-91.798459, 30.828991], [-91.807522, 30.820301], [-91.807295, 30.811069], [-91.777439, 30.793568], [-91.765528, 30.77997], [-91.75522, 30.756571], [-91.757942, 30.74099], [-91.751897, 30.735802], [-91.733673, 30.70173], [-91.736199, 30.679253], [-91.731492, 30.669772], [-91.74643, 30.658782], [-91.740996, 30.632538], [-91.754001, 30.617426], [-91.751066, 30.598877], [-91.757187, 30.566815], [-91.742178, 30.53158], [-91.732823, 30.520314], [-91.731432, 30.512119], [-91.735925, 30.50824], [-91.750115, 30.508589], [-91.756209, 30.498133], [-91.701339, 30.497747], [-91.701316, 30.492556], [-91.692453, 30.481301], [-91.685488, 30.476343], [-91.674766, 30.474546], [-91.64572, 30.444221], [-91.640078, 30.442673], [-91.637172, 30.434866], [-91.639568, 30.429032], [-91.628087, 30.413915], [-91.630019, 30.407084], [-91.624655, 30.394369], [-91.629032, 30.377933], [-91.641491, 30.373638], [-91.648118, 30.365068], [-91.625483, 30.354209], [-91.627209, 30.349203], [-91.624591, 30.338503], [-91.627544, 30.330102], [-91.621055, 30.309938], [-91.589959, 30.277047], [-91.587732, 30.273282], [-91.591098, 30.263704], [-91.588039, 30.257113], [-91.56276, 30.241949], [-91.508268, 30.240297], [-91.475303, 30.229491], [-91.488136, 30.21085], [-91.490243, 30.201912], [-91.471797, 30.186266], [-91.467893, 30.160378], [-91.468183, 30.148957], [-91.472468, 30.142702], [-91.461313, 30.131246], [-91.472139, 30.114159], [-91.463898, 30.102682], [-91.388841, 30.102445], [-91.38925, 30.099256], [-91.378025, 30.094851], [-91.37616, 30.085798], [-91.37176, 30.081562], [-91.368752, 30.072397], [-91.372066, 30.062451], [-91.366735, 30.054699], [-91.353772, 30.061091], [-91.269085, 30.059308], [-91.255942, 30.039776], [-91.244729, 30.031107], [-91.2407, 30.02935], [-91.230033, 30.041903], [-91.225448, 30.042273], [-91.221729, 30.031739], [-91.235889, 30.001128], [-91.259388, 30.0002], [-91.259932, 29.985598], [-91.25555596420293, 29.97264145481232], [-91.624347, 29.94546], [-91.711283, 29.846131], [-91.841051, 29.750411], [-91.935162, 29.672578]]]}}, {"type": "Feature", "properties": {"id": "pensacola", "kind": "zone", "name": "Pensacola", "counties": "Escambia (Florida), Santa Rosa (Florida)", "settings": "gc-default-settings.json"}, "geometry": {"type": "Polygon", "coordinates": [[[-87.634896, 30.866261], [-87.626006, 30.857438], [-87.626224, 30.846664], [-87.616986, 30.840197], [-87.615245, 30.83421], [-87.604314, 30.831419], [-87.600792, 30.821288], [-87.582241, 30.812741], [-87.571752, 30.800199], [-87.568252, 30.800113], [-87.544789, 30.778395], [-87.545847, 30.771756], [-87.535985, 30.761192], [-87.535114, 30.749448], [-87.529977, 30.740952], [-87.511928, 30.733768], [-87.501502, 30.721092], [-87.492093, 30.720392], [-87.483623, 30.71531], [-87.481899, 30.717314], [-87.478293, 30.713711], [-87.479312, 30.7096], [-87.466742, 30.700655], [-87.458013, 30.696398], [-87.449566, 30.69896], [-87.440375, 30.690362], [-87.429819, 30.687987], [-87.419041, 30.678528], [-87.406356, 30.674437], [-87.403327, 30.658033], [-87.396818, 30.65485], [-87.394336, 30.645612], [-87.393294, 30.627218], [-87.396655, 30.608876], [-87.407567, 30.600271], [-87.405446, 30.597416], [-87.408018, 30.583701], [-87.412191, 30.573716], [-87.417137, 30.570692], [-87.417928, 30.562402], [-87.425359, 30.560311], [-87.427554, 30.553681], [-87.434883, 30.549434], [-87.436823, 30.540242], [-87.440848, 30.536644], [-87.440277, 30.531338], [-87.443901, 30.531481], [-87.446974, 30.526457], [-87.447268, 30.515044], [-87.444562, 30.515331], [-87.447702, 30.510458], [-87.430978, 30.498295], [-87.431878, 30.493696], [-87.428578, 30.489696], [-87.434078, 30.487196], [-87.435578, 30.480496], [-87.430478, 30.476396], [-87.427078, 30.467496], [-87.414677, 30.457296], [-87.399577, 30.450897], [-87.370768, 30.446865], [-87.366591, 30.436648], [-87.371169, 30.43049], [-87.394576, 30.418097], [-87.402977, 30.410398], [-87.424377, 30.409798], [-87.430878, 30.404798], [-87.440678, 30.391498], [-87.439878, 30.378899], [-87.451378, 30.367199], [-87.450778, 30.346999], [-87.459278, 30.337], [-87.471879, 30.3318], [-87.49998, 30.328957], [-87.504701, 30.324039], [-87.50558, 30.3111], [-87.50348, 30.307601], [-87.494879, 30.305001], [-87.450078, 30.3111], [-87.452378, 30.300201], [-87.51838, 30.283901], [-87.51837, 30.12553], [-87.30281, 30.1683], [-87.27089, 30.16525], [-87.2348, 30.16681], [-87.13361, 30.17853], [-86.91833, 30.217637], [-86.803374, 30.23495], [-86.785692, 30.99698], [-87.040229, 30.999547], [-87.237685, 30.996393], [-87.598829, 30.997455], [-87.588862, 30.96579], [-87.590933, 30.953821], [-87.607436, 30.92391], [-87.615456, 30.902082], [-87.621832, 30.896952], [-87.62027, 30.887404], [-87.629103, 30.880425], [-87.634896, 30.866261]]]}}, {"type": "Feature", "properties": {"id": "tallahassee", "kind": "zone", "name": "Tallahassee", "counties": "Gadsden (Florida), Jefferson (Florida), Leon (Florida), Wakulla (Florida)", "settings": "gc-default-settings.json"}, "geometry": {"type": "Polygon", "coordinates": [[[-84.932519, 30.606393], [-84.883316, 30.605589], [-84.882616, 30.533094], [-84.815816, 30.533093], [-84.815618, 30.518491], [-84.781813, 30.518693], [-84.781111, 30.459794], [-84.714097, 30.460401], [-84.714124, 30.417199], [-84.680525, 30.417269], [-84.680632, 30.387973], [-84.646408, 30.388281], [-84.663577, 30.378402], [-84.663507, 30.370475], [-84.670479, 30.364144], [-84.681393, 30.367063], [-84.68489, 30.350114], [-84.690914, 30.349622], [-84.694598, 30.3452], [-84.696399, 30.347145], [-84.704347, 30.335888], [-84.715161, 30.333029], [-84.709496, 30.323488], [-84.701113, 30.317671], [-84.708449, 30.310152], [-84.711068, 30.301871], [-84.729898, 30.2862], [-84.730841, 30.28044], [-84.727661, 30.275846], [-84.730942, 30.275158], [-84.73217, 30.267942], [-84.737823, 30.266178], [-84.726608, 30.25672], [-84.701294, 30.24828], [-84.697357, 30.236536], [-84.699486, 30.233784], [-84.70118, 30.235432], [-84.701027, 30.231972], [-84.692716, 30.222143], [-84.687645, 30.222263], [-84.681871, 30.21771], [-84.681442, 30.202188], [-84.675964, 30.200735], [-84.678255, 30.18809], [-84.669895, 30.184435], [-84.668686, 30.173066], [-84.664944, 30.169774], [-84.669492, 30.165691], [-84.668404, 30.159533], [-84.671937, 30.149768], [-84.66854, 30.143604], [-84.672157, 30.140898], [-84.667043, 30.133819], [-84.670364, 30.128208], [-84.659623, 30.115079], [-84.652869, 30.117992], [-84.648293, 30.109287], [-84.651924, 30.106815], [-84.648447, 30.104713], [-84.654549, 30.09992], [-84.644768, 30.09128], [-84.642414, 30.083294], [-84.638245, 30.083815], [-84.635082, 30.071639], [-84.628169, 30.068307], [-84.630162, 30.064953], [-84.625798, 30.065296], [-84.626084, 30.062392], [-84.619956, 30.066919], [-84.616036, 30.065361], [-84.609777, 30.059719], [-84.603916, 30.046335], [-84.596468, 30.046362], [-84.600144, 30.044061], [-84.59419, 30.042309], [-84.594048, 30.040033], [-84.599323, 30.040131], [-84.595177, 30.033417], [-84.570368, 30.016884], [-84.568329, 30.020398], [-84.565137, 30.017417], [-84.561795, 30.022772], [-84.558376, 30.02212], [-84.55569, 30.014778], [-84.543021, 30.012835], [-84.548411, 30.008983], [-84.542419, 30.002445], [-84.531218, 30.007366], [-84.525007, 30.005221], [-84.51896, 29.995129], [-84.525393, 29.983709], [-84.520397, 29.980484], [-84.512102, 29.982039], [-84.51413, 29.989076], [-84.487087, 29.988457], [-84.472119, 30.002399], [-84.467713, 30.001853], [-84.459675, 29.993376], [-84.458403, 29.975198], [-84.454551, 29.971333], [-84.449482, 29.973344], [-84.444191, 29.981799], [-84.438881, 29.977442], [-84.426856, 29.985914], [-84.39882, 29.983409], [-84.385437, 29.977395], [-84.348838, 29.969081], [-84.29688, 29.972559], [-84.411551, 29.745639], [-84.38008, 29.74293], [-84.32327, 29.74809], [-84.29097, 29.75541], [-84.25287, 29.77158], [-84.22293, 29.79222], [-84.20231, 29.81315], [-84.18199, 29.84436], [-84.16891, 29.8755], [-84.160797, 29.921266], [-84.1205, 29.9255], [-84.06492, 29.94008], [-84.03829, 29.91818], [-83.999955, 29.898948], [-83.992184, 30.096208], [-83.981483, 30.110208], [-83.97772, 30.123094], [-83.968628, 30.13617], [-83.97306, 30.146037], [-83.960354, 30.152398], [-83.963083, 30.157511], [-83.957794, 30.162037], [-83.958115, 30.171422], [-83.952846, 30.175572], [-83.951299, 30.186282], [-83.94083, 30.19209], [-83.93101, 30.189123], [-83.925453, 30.19286], [-83.925615, 30.205017], [-83.918043, 30.21481], [-83.916586, 30.223633], [-83.921347, 30.228314], [-83.916292, 30.233719], [-83.913751, 30.246171], [-83.902462, 30.247553], [-83.89238, 30.260777], [-83.879118, 30.269166], [-83.861386, 30.270861], [-83.853754, 30.277027], [-83.844874, 30.277432], [-83.836342, 30.282198], [-83.818262, 30.304023], [-83.821646, 30.308124], [-83.820521, 30.313144], [-83.811133, 30.318327], [-83.801258, 30.315343], [-83.788876, 30.324318], [-83.787107, 30.331672], [-83.793577, 30.335506], [-83.799212, 30.346872], [-83.807037, 30.348394], [-83.804086, 30.353094], [-83.808094, 30.365154], [-83.803787, 30.377586], [-83.795737, 30.382146], [-83.790328, 30.390302], [-83.787974, 30.389443], [-83.788396, 30.382206], [-83.783186, 30.378863], [-83.779798, 30.382053], [-83.757261, 30.385467], [-83.751073, 30.407598], [-83.740634, 30.420832], [-83.72172, 30.434354], [-83.728339, 30.45459], [-83.723944, 30.461198], [-83.728933, 30.472733], [-83.726934, 30.487992], [-83.73542, 30.498618], [-83.736954, 30.507569], [-83.72997, 30.518751], [-83.725975, 30.523091], [-83.70436, 30.523021], [-83.704293, 30.538094], [-83.671073, 30.53802], [-83.671117, 30.552861], [-83.637412, 30.552671], [-83.637343, 30.567471], [-83.621189, 30.567351], [-83.62073, 30.58198], [-83.604186, 30.581916], [-83.604401, 30.638236], [-83.612122, 30.638736], [-83.61172, 30.651258], [-84.250357, 30.684133], [-84.864693, 30.711542], [-84.858341, 30.696621], [-84.87492, 30.671992], [-84.88752, 30.663792], [-84.893519, 30.645892], [-84.903419, 30.638492], [-84.905619, 30.621993], [-84.927519, 30.612493], [-84.932519, 30.606393]]]}}, {"type": "Feature", "properties": {"id": "fort-walton", "kind": "zone", "name": "Fort Walton Beach", "counties": "Holmes (Florida), Okaloosa (Florida), Walton (Florida)", "settings": "gc-default-settings.json"}, "geometry": {"type": "Polygon", "coordinates": [[[-86.803374, 30.23495], [-86.71348, 30.24363], [-86.64058, 30.24631], [-86.5913, 30.24282], [-86.53137, 30.2322], [-86.4456, 30.23231], [-86.37392, 30.22341], [-86.30638, 30.2094], [-86.1498, 30.16291], [-86.07407, 30.13519], [-86.00077, 30.1036], [-85.993596, 30.405082], [-85.983727, 30.418482], [-85.98659, 30.423515], [-85.981883, 30.429522], [-85.974196, 30.431579], [-85.97151, 30.435865], [-85.968872, 30.435754], [-85.969113, 30.431105], [-85.962415, 30.440585], [-85.935938, 30.445245], [-85.932434, 30.441644], [-85.916153, 30.438502], [-85.90272, 30.442441], [-85.897674, 30.455908], [-85.893057, 30.456316], [-85.889359, 30.47114], [-85.885732, 30.471509], [-85.886454, 30.465917], [-85.877354, 30.467895], [-85.871479, 30.482134], [-85.859769, 30.490134], [-85.858001, 30.496905], [-85.865745, 30.498277], [-85.867935, 30.506613], [-85.873678, 30.504864], [-85.874934, 30.507467], [-85.878047, 30.504366], [-85.883821, 30.507842], [-85.879126, 30.512158], [-85.887563, 30.518546], [-85.882365, 30.520951], [-85.887063, 30.527957], [-85.881655, 30.533873], [-85.877278, 30.53195], [-85.879827, 30.556205], [-85.890553, 30.563845], [-85.889548, 30.581778], [-85.893485, 30.580814], [-85.89535, 30.58635], [-85.909037, 30.586733], [-85.908812, 30.596756], [-85.915921, 30.596788], [-85.908276, 30.612476], [-85.913663, 30.617615], [-85.910304, 30.620829], [-85.914204, 30.637464], [-85.901395, 30.64759], [-85.890282, 30.651485], [-85.888942, 30.656851], [-85.867929, 30.662579], [-85.87539, 30.667835], [-85.870886, 30.668567], [-85.874343, 30.681703], [-85.867344, 30.680492], [-85.863555, 30.686913], [-85.865821, 30.691146], [-85.860482, 30.692806], [-85.857988, 30.698574], [-85.844421, 30.70313], [-85.84515, 30.707752], [-85.84051, 30.711508], [-85.834978, 30.710604], [-85.839774, 30.717283], [-85.833567, 30.7213], [-85.83506, 30.725685], [-85.832096, 30.723111], [-85.825251, 30.725778], [-85.828521, 30.729859], [-85.822585, 30.738787], [-85.82998, 30.740576], [-85.824303, 30.743999], [-85.832534, 30.748683], [-85.827737, 30.752245], [-85.832537, 30.758504], [-85.828094, 30.761941], [-85.83052, 30.765715], [-85.82769, 30.774889], [-85.816839, 30.78183], [-85.821616, 30.790775], [-85.751927, 30.789837], [-85.751979, 30.775706], [-85.735115, 30.775292], [-85.736051, 30.74637], [-85.619011, 30.743868], [-85.619936, 30.771741], [-85.603221, 30.796528], [-85.598662, 30.818858], [-85.599429, 30.844628], [-85.592193, 30.864543], [-85.584105, 30.87446], [-85.582753, 30.885111], [-85.575574, 30.898601], [-85.55912, 30.913929], [-85.547745, 30.932185], [-85.536784, 30.934499], [-85.530294, 30.939315], [-85.532457, 30.958557], [-85.52921, 30.974439], [-85.518874, 30.9778], [-85.497992, 30.996931], [-86.061376, 30.992859], [-86.520196, 30.993258], [-86.785692, 30.99698], [-86.803374, 30.23495]]]}}]}