{"type": "FeatureCollection", "_source": "US Census TIGER via PublicaMundi/MappingAPI us-states.json (public domain), coordinates rounded to 4dp", "features": [{"type": "Feature", "id": "01", "properties": {"name": "Alabama", "gc_code": "gc-al", "us_code": "us-al"}, "geometry": {"type": "Polygon", "coordinates": [[[-87.3593, 35.0012], [-85.6067, 34.9847], [-85.4314, 34.1249], [-85.185, 32.8597], [-85.0699, 32.5804], [-84.9604, 32.4215], [-85.0042, 32.323], [-84.8892, 32.2627], [-85.059, 32.1367], [-85.0535, 32.0108], [-85.1411, 31.841], [-85.0426, 31.5398], [-85.1138, 31.2769], [-85.0042, 31.003], [-85.4971, 30.9975], [-87.6003, 30.9975], [-87.6331, 30.8661], [-87.4086, 30.6744], [-87.4469, 30.5101], [-87.3702, 30.4279], [-87.5181, 30.2801], [-87.6551, 30.2472], [-87.907, 30.4115], [-87.9344, 30.658], [-88.0111, 30.6854], [-88.1042, 30.4991], [-88.137, 30.3184], [-88.3944, 30.3677], [-88.4711, 31.8958], [-88.2411, 33.7963], [-88.0987, 34.8916], [-88.2027, 34.9957], [-87.3593, 35.0012]]]}}, {"type": "Feature", "id": "12", "properties": {"name": "Florida", "gc_code": "gc-fl", "us_code": "us-fl"}, "geometry": {"type": "Polygon", "coordinates": [[[-85.4971, 30.9975], [-85.0042, 31.003], [-84.8673, 30.7127], [-83.4981, 30.647], [-82.2164, 30.5703], [-82.1672, 30.3567], [-82.0467, 30.3622], [-82.0028, 30.5649], [-82.0412, 30.7511], [-81.9481, 30.8278], [-81.718, 30.7456], [-81.4442, 30.7073], [-81.384, 30.2746], [-81.258, 29.7871], [-80.9677, 29.1463], [-80.5241, 28.4617], [-80.5898, 28.4124], [-80.5679, 28.0948], [-80.3817, 27.7388], [-80.0914, 27.0213], [-80.0311, 26.7967], [-80.0366, 26.5667], [-80.1462, 25.7397], [-80.2393, 25.7232], [-80.3379, 25.4658], [-80.305, 25.3837], [-80.4967, 25.1975], [-80.5734, 25.2413], [-80.7596, 25.1646], [-81.0772, 25.1208], [-81.1704, 25.2248], [-81.1265, 25.3782], [-81.3511, 25.8218], [-81.5264, 25.904], [-81.6797, 25.8437], [-81.8002, 26.0902], [-81.8331, 26.2928], [-82.0412, 26.5174], [-82.0905, 26.6653], [-82.0576, 26.8789], [-82.1726, 26.9172], [-82.1452, 26.7912], [-82.2493, 26.7584], [-82.567, 27.3006], [-82.6929, 27.4375], [-82.3917, 27.8373], [-82.5889, 27.8154], [-82.7203, 27.6895], [-82.8518, 27.8866], [-82.6765, 28.4343], [-82.6437, 28.8889], [-82.7641, 28.9985], [-82.8025, 29.1463], [-82.9942, 29.1792], [-83.2187, 29.4202], [-83.3995, 29.5188], [-83.4104, 29.6666], [-83.5364, 29.7214], [-83.6405, 29.8857], [-84.0238, 30.1048], [-84.3579, 30.0555], [-84.3415, 29.9021], [-84.451, 29.9295], [-84.8673, 29.7433], [-85.3109, 29.6995], [-85.3, 29.809], [-85.404, 29.9405], [-85.9243, 30.2362], [-86.2968, 30.3622], [-86.6309, 30.3951], [-86.9102, 30.3732], [-87.5181, 30.2801], [-87.3702, 30.4279], [-87.4469, 30.5101], [-87.4086, 30.6744], [-87.6331, 30.8661], [-87.6003, 30.9975], [-85.4971, 30.9975]]]}}, {"type": "Feature", "id": "22", "properties": {"name": "Louisiana", "gc_code": "gc-la", "us_code": "us-la"}, "geometry": {"type": "Polygon", "coordinates": [[[-93.6085, 33.0185], [-91.1658, 33.0021], [-91.0727, 32.8871], [-91.1439, 32.8433], [-91.1548, 32.6406], [-91.0069, 32.5146], [-90.985, 32.2189], [-91.1055, 31.9889], [-91.341, 31.8465], [-91.4013, 31.6219], [-91.4999, 31.6438], [-91.5163, 31.2769], [-91.6368, 31.2659], [-91.5656, 31.0687], [-91.6368, 30.9975], [-89.7472, 30.9975], [-89.8458, 30.6689], [-89.6815, 30.4498], [-89.6432, 30.2855], [-89.5227, 30.1815], [-89.8184, 30.0445], [-89.8404, 29.946], [-89.5994, 29.8802], [-89.4953, 30.0391], [-89.2872, 29.8802], [-89.3036, 29.7543], [-89.4241, 29.6995], [-89.6487, 29.7488], [-89.6213, 29.6557], [-89.698, 29.5133], [-89.5063, 29.3873], [-89.1995, 29.349], [-89.09, 29.2011], [-89.0024, 29.1792], [-89.1612, 29.0094], [-89.3365, 29.0423], [-89.4843, 29.2175], [-89.8513, 29.3106], [-89.8513, 29.4804], [-90.032, 29.4257], [-90.0211, 29.2833], [-90.1032, 29.1518], [-90.2347, 29.1299], [-90.3333, 29.2778], [-90.5633, 29.2833], [-90.6455, 29.1299], [-90.7988, 29.0861], [-90.9631, 29.1792], [-91.0946, 29.1901], [-91.2205, 29.4366], [-91.4451, 29.5461], [-91.5327, 29.5297], [-91.6204, 29.7378], [-91.8832, 29.7105], [-91.8887, 29.8364], [-92.1461, 29.7159], [-92.1133, 29.6228], [-92.3105, 29.5352], [-92.6172, 29.579], [-92.9732, 29.7159], [-93.2251, 29.7762], [-93.7673, 29.7269], [-93.8385, 29.6885], [-93.9261, 29.7871], [-93.6906, 30.1431], [-93.7673, 30.3348], [-93.6961, 30.4389], [-93.729, 30.5758], [-93.6304, 30.6799], [-93.5263, 30.9373], [-93.5428, 31.1509], [-93.8166, 31.5562], [-93.8221, 31.7753], [-94.0412, 31.9943], [-94.0412, 33.0185], [-93.6085, 33.0185]]]}}, {"type": "Feature", "id": "28", "properties": {"name": "Mississippi", "gc_code": "gc-ms", "us_code": "us-ms"}, "geometry": {"type": "Polygon", "coordinates": [[[-88.4711, 34.9957], [-88.2027, 34.9957], [-88.0987, 34.8916], [-88.2411, 33.7963], [-88.4711, 31.8958], [-88.3944, 30.3677], [-88.504, 30.3239], [-88.745, 30.3458], [-88.8435, 30.4115], [-89.0845, 30.3677], [-89.4186, 30.2527], [-89.5227, 30.1815], [-89.6432, 30.2855], [-89.6815, 30.4498], [-89.8458, 30.6689], [-89.7472, 30.9975], [-91.6368, 30.9975], [-91.5656, 31.0687], [-91.6368, 31.2659], [-91.5163, 31.2769], [-91.4999, 31.6438], [-91.4013, 31.6219], [-91.341, 31.8465], [-91.1055, 31.9889], [-90.985, 32.2189], [-91.0069, 32.5146], [-91.1548, 32.6406], [-91.1439, 32.8433], [-91.0727, 32.8871], [-91.1658, 33.0021], [-91.0891, 33.139], [-91.1439, 33.3471], [-91.0562, 33.4293], [-91.2315, 33.5607], [-91.0727, 33.8675], [-90.8919, 34.0263], [-90.9522, 34.1358], [-90.744, 34.3001], [-90.7495, 34.3659], [-90.5688, 34.4206], [-90.5852, 34.6178], [-90.4812, 34.6616], [-90.41, 34.8314], [-90.2511, 34.9081], [-90.3114, 34.9957], [-88.4711, 34.9957]]]}}]}